name,street,city,province,postal,health_region,
LOBLAW PHARMACY,290 KING GEORGE RD N ,BRANTFORD ,Ontario ,N3R5L8,BRANT,
SHOPPERS DRUG MART #1018,1865 SCUGOG STREET ,PORT PERRY ,Ontario ,L9L1J3,DURHAM,
LOBLAW PHARMACY 1001,1792 LIVERPOOL RD ,PICKERING ,Ontario ,L1V1V9,DURHAM,
SHOPPERS DRUG MART #618,1355 KINGSTON RD ,PICKERING ,Ontario ,L1V1B8,DURHAM,
SHOPPERS DRUG MART #967,314 HARWOOD AVE ,AJAX ,Ontario ,L1S2J1,DURHAM,
CLINIC PHARMACY,117 KING ST E ,OSHAWA ,Ontario ,L1H1B9,DURHAM,
DURHAM PHARMACY,462 PAXTON ST ,PORT PERRY ,Ontario ,L9L1L9,DURHAM,
SHOPPERS DRUG MART #931,232 TORONTO STREET SOUTH ,UXBRIDGE ,Ontario ,L9P0C4,DURHAM,
REXALL #1602,28 & 29-1822 WHITES RD ,PICKERING ,Ontario ,L1V4M1,DURHAM,
SHOPPERS DRUG MART #1167,3100 GARDEN ST ,WHITBY ,Ontario ,L1R2G8,DURHAM,
HEALTH CENTRE PHARMACY,1450 HWY 2 ,COURTICE ,Ontario ,L1E3C3,DURHAM,
LOVELL DRUGS LTD,500 ROSSLAND RD W ,OSHAWA ,Ontario ,L1J3H2,DURHAM,
SHOPPERS DRUG MART #1404,570 LONGWORTH AVE ,BOWMANVILLE ,Ontario ,L1C0H4,DURHAM,
WAL-MART PHARMACY,4100 BALDWIN ST S ,WHITBY ,Ontario ,L1R3H8,DURHAM,
WAL-MART PHARMACY,270 KINGSTON RD E RR 1 ,AJAX ,Ontario ,L1Z1G1,DURHAM,
SHOPPERS DRUG MART #1249,784 TAUNTON RD E ,OSHAWA ,Ontario ,L1K1B7,DURHAM,
LOBLAW PHARMACY #2842,481 GIBB ST ,OSHAWA ,Ontario ,L1J1Z4,DURHAM,
SCOTTS DRUG MART,1000 SIMCOE ST N ,OSHAWA ,Ontario ,L1G4W4,DURHAM,
WAL-MART PHARMACY,1899 BROCK RD ,PICKERING ,Ontario ,L1V4H7,DURHAM,
SHOPPERS DRUG MART #1235,1971 SALEM ROAD NORTH ,AJAX ,Ontario ,L1T0J9,DURHAM,
SHOPPERS DRUG MART #1238,4081 THICKSON ROAD NORTH ,WHITBY ,Ontario ,L1R2X3,DURHAM,
PRESCRIPTION PHARMACY,11 GIBB ST ,OSHAWA ,Ontario ,L1H2J9,DURHAM,
COURTICE PHARMASAVE,2727 COURTICE RD ,COURTICE ,Ontario ,L1E3A2,DURHAM,
SHOPPERS DRUG MART #1222,1105 KINGSTON ROAD ,PICKERING ,Ontario ,L1V1B5,DURHAM,
LOBLAW PHARMACY #1058,200 TAUNTON RD W ,WHITBY ,Ontario ,L1R3H8,DURHAM,
REXALL #1705,17-475 WESTNEY RD NORTH ,AJAX ,Ontario ,L1T3H4,DURHAM,
PHARMA PLUS #1701,240 HARWOOD AVE SOUTH ,AJAX ,Ontario ,L1S2N6,DURHAM,
BOWEN'S PHARMACY,88 HARWOOD AVENUE SOUTH ,AJAX ,Ontario ,L1S2H6,DURHAM,
PICKERING MEDICAL PHARMACY,1885 GLENANNA RD ,PICKERING ,Ontario ,L1V6R6,DURHAM,
DRUGSTORE PHARMACY #552,323 TORONTO ST S ,UXBRIDGE ,Ontario ,L9P1N2,DURHAM,
SHOPPERS DRUG MART #1413,95 WILLIAMSON DRIVE WEST ,AJAX ,Ontario ,L1T0K9,DURHAM,
MAIN DRUG MART,1450 KINGSTON RD ,PICKERING ,Ontario ,L1V1C1,DURHAM,
SHOPPERS DRUG MART #1426,2045 SIMCOE ST N ,OSHAWA ,Ontario ,L1H7K4,DURHAM,
LOBLAW PHARMACY #1064,2375 HWY 2 ,BOWMANVILLE ,Ontario ,L1C5A3,DURHAM,
BROOKLIN PHARMACY,65 BALDWIN ST ,BROOKLIN ,Ontario ,L1M1A3,DURHAM,
SUPER RX PHARMACY LTD,1725 KINGSTON RD UNIT 9 ,PICKERING ,Ontario ,L1V4L9,DURHAM,
PHARMASAVE MDCNE CHEST PHRMCY,2-221 KING ST E ,BOWMANVILLE ,Ontario ,L1C1P7,DURHAM,
WALMART PHARMACY,1300 KING ST EAST ,OSHAWA ,Ontario ,L1H8J4,DURHAM,
SHOPPERS DRUG MART #983,199 WENTWORTH ST W ,OSHAWA ,Ontario ,L1J6P4,DURHAM,
HARWOOD PHARMACY,1-580 HARWOOD AVENUE SOUTH ,AJAX ,Ontario ,L1S2J4,DURHAM,
DURHAM DRUG STORE,780 KINGSTON RD ,PICKERING ,Ontario ,L1V1C5,DURHAM,
FOOD BASICS PHARMACY #564,280 HARWOOD AVE S ,AJAX ,Ontario ,L1S2J1,DURHAM,
RITSON PHARMACY,8A-250 TAUNTON RD EAST ,OSHAWA ,Ontario ,L1G7T1,DURHAM,
SOBEYS PHARMACY #7203,260 KINGSTON RD ,AJAX ,Ontario ,L1T4E4,DURHAM,
SOBEYS PHARMACY # 7207,1377 WILSON ST N ,OSHAWA ,Ontario ,L1K2Z5,DURHAM,
PEOPLES CHOICE DRUG MART,A2-1755 PICKERING PARKWAY ,PICKERING ,Ontario ,L1V6K5,DURHAM,
CUSTOM CARE PHCY & COMPOUNDING,6-501 COLDSTREAM DRIVE ,OSHAWA ,Ontario ,L1K3B3,DURHAM,
LOVELL DRUGS,8 KING ST E ,OSHAWA ,Ontario ,L1H1A9,DURHAM,
METRO PHARMACY #543,243 KING ST E ,BOWMANVILLE ,Ontario ,L1C3X1,DURHAM,
INTREPID PHARMACY,500-379 BOND ST W ,OSHAWA ,Ontario ,L1J8R7,DURHAM,
BLUESKIES PHARMACY,2-1298 KINGSTON RD ,PICKERING ,Ontario ,L1V3M9,DURHAM,
KINGSTON PHARMACY,65 KINGSTON RD UNIT 1 ,AJAX ,Ontario ,L1S7J4,DURHAM,
AJAX PHARMACHOICE,101-901 HARWOOD AVE N ,AJAX ,Ontario ,L1Z0T4,DURHAM,
HARWOOD MEDICAL PHARMACY,19 HARWOOD AVE S ,AJAX ,Ontario ,L1S2B9,DURHAM,
AJAX GUARDIAN PHARMACY,6-603 CHURCH ST NORTH ,AJAX ,Ontario ,L1T0B8,DURHAM,
TRAIL CAPITAL PHARMACY,A35-2 DOUGLAS ROAD ,UXBRIDGE ,Ontario ,L9P1S9,DURHAM,
WYNPLUS PHARMACY,A7-81 MIDDLECOTE DR ,AJAX ,Ontario ,L1T0K3,DURHAM,
SHOPPERS DRUG MART #606,1236 BROOKDALE AVE ,CORNWALL ,Ontario ,K6J4P8,EASTERN ONTARIO,
FRESHCO PHARMACY #7268,525 NINTH ST E ,CORNWALL ,Ontario ,K6H0A3,EASTERN ONTARIO,
WAL-MART PHARMACY,3001 RICHELIUE ST ,ROCKLAND ,Ontario ,K4K0B5,EASTERN ONTARIO,
SHOPPERS DRUG MART #1002,100 10TH ST W ,OWEN SOUND ,Ontario ,N4K3P9,GREY-BRUCE,
MCKENZIE'S PHARMACY LTD,608 BERFORD ST ,WIARTON ,Ontario ,N0H2T0,GREY-BRUCE,
GORDON PHARMASAVE,767 QUEEN ST ,KINCARDINE ,Ontario ,N2Z2Z4,GREY-BRUCE,
SHOPPERS DRUG MART #1418,895 10TH STREET ,HANOVER ,Ontario ,N4N1S4,GREY-BRUCE,
REXALL #1644,174 ALBERT ST SOUTH ,SOUTHAMPTON ,Ontario ,N0H2L0,GREY-BRUCE,
LOBLAW PHARMACY #563,1150 16TH ST E ,OWEN SOUND ,Ontario ,N4K1Z3,GREY-BRUCE,
MEAFORD IDA PHARMACY,3-334 SYKES ST ,MEAFORD ,Ontario ,N4L1X1,GREY-BRUCE,
REXALL PHARMA PLUS #1719,1116 SUTTON ST ,KINCARDINE ,Ontario ,N2Z2C6,GREY-BRUCE,
REXALL PHARMA PLUS #2312,1507-9TH AVENUE EAST ,OWEN SOUND ,Ontario ,N4K3E9,GREY-BRUCE,
MCKECHNIE PHARMACY LTD,44 QUEEN ST ,KINCARDINE ,Ontario ,N2Z3C1,GREY-BRUCE,
PELLOWS PHARMACY,232 DURHAM ST E ,WALKERTON ,Ontario ,N0G2V0,GREY-BRUCE,
SHOPPERS DRUG MART 1016,270 SPRING ST ,COBOURG ,Ontario ,K9A3K2,HALIBURTON KAWARTHA PR,
SHOPPERS DRUG MART #1538,85 BOLTON STREET ,BOBCAYGEON ,Ontario ,K0M1A0,HALIBURTON KAWARTHA PR,
PHARMACY 101,464 DIVISION ST ,COBOURG ,Ontario ,K9A3S2,HALIBURTON KAWARTHA PR,
YORK SUPER PHARMACY,"MIDTOWN MALL, 500 DIVISION ST ",COBOURG ,Ontario ,K9A3S4,HALIBURTON KAWARTHA PR,
MAC LAREN PHARMACY,79 BRIDGE ST E ,CAMPBELLFORD ,Ontario ,K0L1L0,HALIBURTON KAWARTHA PR,
PHARMA PLUS #2238,57-401 KENT ST WEST ,LINDSAY ,Ontario ,K9V4Z1,HALIBURTON KAWARTHA PR,
REXALL #6999,224 HIGHLAND ST ,HALIBURTON ,Ontario ,K0M1S0,HALIBURTON KAWARTHA PR,
FENELON FALLS PHARMACY,53 COLBORNE ST ,FENELON FALLS ,Ontario ,K0M1N0,HALIBURTON KAWARTHA PR,
SHOPPERS DRUG MART #1530,186 HIGHLAND ST ,HALIBURTON ,Ontario ,K0M1S0,HALIBURTON KAWARTHA PR,
VILLAGE GATE PHARMASAVE,101 EAST STREET ,BOBCAYGEON ,Ontario ,K0M1A0,HALIBURTON KAWARTHA PR,
LOBLAW PHARMACY 1022,400 KENT ST W ,LINDSAY ,Ontario ,K9V6K2,HALIBURTON KAWARTHA PR,
LOBLAW PHARMACY #4265,20 JOCELYN ST ,PORT HOPE ,Ontario ,L1A3V7,HALIBURTON KAWARTHA PR,
BRIGHTON REMEDY'S RX,24 MAIN STREET ,BRIGHTON ,Ontario ,K0K2H0,HALIBURTON KAWARTHA PR,
R.X DRUG MART,51 KENT ST W ,LINDSAY ,Ontario ,K9V2X9,HALIBURTON KAWARTHA PR,
REXALL PHARMA PLUS #2121,86 ANGELINE ST SOUTH ,LINDSAY ,Ontario ,K9V3L5,HALIBURTON KAWARTHA PR,
SHOPPERS DRUG MART 3080,249 ONTARIO ST ,PORT HOPE ,Ontario ,L1A3Y9,HALIBURTON KAWARTHA PR,
DRUGSTORE PHARMACY #4264,5121 COUNTY RD 21 ,HALIBURTON ,Ontario ,K0M1S0,HALIBURTON KAWARTHA PR,
SHOPPERS DRUG MART 1042,501-503 PLAINS RD E ,BURLINGTON ,Ontario ,L7T2E2,HALTON,
SHOPPERS DRUG MART #1206,1450 HEADON RD ,BURLINGTON ,Ontario ,L7M3Z5,HALTON,
SHOPPERS DRUG MART #710,75 NIPISSING RD ,MILTON ,Ontario ,L9T1R3,HALTON,
SHOPPERS DRUG MART #744,550 KERR ST ,OAKVILLE ,Ontario ,L6K3C7,HALTON,
SHOPPERS DRUG MART 707,265 GUELPH ST A ,GEORGETOWN ,Ontario ,L7G4B1,HALTON,
SHOPPERS DRUG MART #706,351 CORNWALL RD ,OAKVILLE ,Ontario ,L6J7Z5,HALTON,
SHOPPERS DRUG MART #996,2297 LAKESHORE RD W ,OAKVILLE ,Ontario ,L6L1H2,HALTON,
WAL-MART PHARMACY,300 GUELPH STREET ,GEORGETOWN ,Ontario ,L7G4B2,HALTON,
SHOPPERS DRUG MART #1168,252 QUEEN ST ,ACTON ,Ontario ,L7J1P6,HALTON,
SHOPPERS DRUG MART #878,478 DUNDAS ST W ,OAKVILLE ,Ontario ,L6H6Y3,HALTON,
SHOPPERS DRUG MART #726,2080 APPLEBY LINE ,BURLINGTON ,Ontario ,L7L6M6,HALTON,
SHOPPERS DRUG MART #1218,2211 BRANT ST ,BURLINGTON ,Ontario ,L7P0A1,HALTON,
SHOPPERS DRUG MART #1203,2525 PRINCE MICHAEL DR ,OAKVILLE ,Ontario ,L6H0E9,HALTON,
LOBLAW PHARMACY,2025 GUELPH LINE ,BURLINGTON ,Ontario ,L7P4M8,HALTON,
THE DRUG STORE PHARMACY #1190,173 LAKESHORE ROAD W ,OAKVILLE ,Ontario ,L6K1E7,HALTON,
SHOPPERS DRUG MART #740,D001-777 GUELPH LINE ,BURLINGTON ,Ontario ,L7R3N2,HALTON,
WAL-MART PHARMACY,2065 FAIRVIEW ST ,BURLINGTON ,Ontario ,L7R0B4,HALTON,
SHOPPERS DRUG MART #683,5353 LAKESHORE ROAD EAST ,BURLINGTON ,Ontario ,L7L1C8,HALTON,
LOBLAW PHARMACY #2810,820 MAIN ST E ,MILTON ,Ontario ,L9T0J4,HALTON,
LOBLAW PHARMACY #4067,1059 PLAINS RD E ,BURLINGTON ,Ontario ,L7T4K1,HALTON,
REXALL,372 QUEEN ST ,ACTON ,Ontario ,L7J2Y5,HALTON,
REXALL #2444,"2441 LAKESSHORE RD WEST, UNIT 100 ",OAKVILLE ,Ontario ,L6L1H6,HALTON,
HOLLY PHARMACY,611 HOLLY AVE ,MILTON ,Ontario ,L9T0K4,HALTON,
LOBLAW PHARMACY #1024,201 OAK PARK BLVD ,OAKVILLE ,Ontario ,L6H7T4,HALTON,
MOUNTAINSIDE PHARMACY,1900 WALKERS LINE ,BURLINGTON ,Ontario ,L7M4W5,HALTON,
SHOPPERS DRUG MART #1493,3035 APPLEBY LINE ,BURLINGTON ,Ontario ,L7M0V7,HALTON,
REXALL,2400 GUELPH LINE ,BURLINGTON ,Ontario ,L7P4M7,HALTON,
SHOPPERS DRUG MART #745,109A-240 LEIGHLAND AVENUE ,OAKVILLE ,Ontario ,L6H3H6,HALTON,
FAIRWAYS DRUG STORE,1500 UPPER MIDDLE RD W ,OAKVILLE ,Ontario ,L6M3G3,HALTON,
PROGRESSIVE PHARMACY,3-678 GUELPH LINE ,BURLINGTON ,Ontario ,L7R3M8,HALTON,
BRONTE CENTRE PHARMACY,78 JONES ST ,OAKVILLE ,Ontario ,L6L6C5,HALTON,
LOBLAW PHARMACY #4339,5111 NEW ST ,BURLINGTON ,Ontario ,L7L1V2,HALTON,
PALERO PHARMACY,2525 OLD BRONTE ROAD SUITE100 ,OAKVILLE ,Ontario ,L6M4J2,HALTON,
WHITE OAKS PHARMACY,B6-360 DUNDAS ST ,OAKVILLE ,Ontario ,L6H6Z9,HALTON,
METRO PHARMACY #584,2010 APPLEBY LINE ,BURLINGTON ,Ontario ,L7L6M6,HALTON,
SHOPPERS DRUG MART #1012,3051 WALKERS LINE ,BURLINGTON ,Ontario ,L7M0W3,HALTON,
BRANT PLAZA PHARMASAVE,561 BRANT ST ,BURLINGTON ,Ontario ,L7R2G6,HALTON,
LOBLAW PHARMACY #4632,2515 APPLEBY LINE ,BURLINGTON ,Ontario ,L7L0B6,HALTON,
DUNDAS NEYAGAWA PHARMACY,479 DUNDAS ST WEST ,OAKVILLE ,Ontario ,L6M1L9,HALTON,
SOBEYS PHARMACY-ABBEY #7230,1500 UPPER MIDDLE RD ,OAKVILLE ,Ontario ,L6H4L3,HALTON,
TOTAL HEALTH PHARMACY #123,470 BRONTE ST S ,MILTON ,Ontario ,L9T2J4,HALTON,
MILTOWNE PHARMACY,210-311 COMMERCIAL ST ,MILTON ,Ontario ,L9T3Z9,HALTON,
METRO PHARMACY #571,1050 KENNEDY CIRCLE ,MILTON ,Ontario ,L9T0J9,HALTON,
METRO PHARMACY #516,1A-280 NORTH SERVICE RD ,OAKVILLE ,Ontario ,L6M2S2,HALTON,
METRO PHARMACY #565,367 MOUNTAINVIEW RD S ,GEORGETOWN ,Ontario ,L7G5X3,HALTON,
SOBEYS PHARMACY #7272,1035 BRONTE STREET SOUTH ,MILTON ,Ontario ,L9T8X3,HALTON,
SOBEYS PHARMACY #7269,1250 BRANT STREET ,BURLINGTON ,Ontario ,L7P1X8,HALTON,
OAK CITY PHARMACY,107-180 OAK PARK BLVD ,OAKVILLE ,Ontario ,L6H0A6,HALTON,
LOBLAW PHARMACY #4925,493 DUNDAS STREET WEST ,OAKVILLE ,Ontario ,L6M4M2,HALTON,
MORELLI'S GUARDIAN PHARMACY,469 CORNWALL RD ,OAKVILLE ,Ontario ,L6J7S8,HALTON,
GEORGETOWN PHARMACY,101-118 MILLS STREET ,GEORGETOWN ,Ontario ,L7G2C5,HALTON,
MILLCROFT PHARMACY,D10-2500 APPLEBY LINE ,BURLINGTON ,Ontario ,L7L0A2,HALTON,
SHOPPERS DRUG MART #742,101 OSLER DRIVE ,DUNDAS ,Ontario ,L9H4H4,HAMILTON,
SHOPPERS DRUG MART #754,801 MOHAWK RD W ,HAMILTON ,Ontario ,L9C6C2,HAMILTON,
SHOPPERS DRUG MART #1299,1411 UPPER SHERMAN AVENUE ,HAMILTON ,Ontario ,L8W1C4,HAMILTON,
PARAMOUNT PHARMASAVE,1050 PARAMOUNT DR ,STONEY CREEK ,Ontario ,L8J1P9,HAMILTON,
REXALL #6946,126 QUEENSTON RD ,HAMILTON ,Ontario ,L8K1G4,HAMILTON,
SHOPPERS DRUG MART #1053,232 CANNON STREET EAST ,HAMILTON ,Ontario ,L8L0A6,HAMILTON,
WAL-MART PHARMACY,675 UPPER JAMES ST ,HAMILTON ,Ontario ,L9C2Z5,HAMILTON,
DRUGSTORE PHARMACY #4072,54 WILSON ST W ,ANCASTER ,Ontario ,L9G1N2,HAMILTON,
LEE'S DUNDAS PHARMACY,58 KING ST E ,DUNDAS ,Ontario ,L9H1B8,HAMILTON,
SHOPPERS DRUG MART #752,661 UPPER JAMES ST ,HAMILTON ,Ontario ,L9C5R8,HAMILTON,
LOBLAW PHARMACY #4254,1579 MAIN ST W ,HAMILTON ,Ontario ,L8S1E6,HAMILTON,
AXIS HEALTH CARE PLUS PHARMACY,908 GARTH ST ,HAMILTON ,Ontario ,L9C4L2,HAMILTON,
REXALL,18-2 KING ST WEST ,HAMILTON ,Ontario ,L8P1A1,HAMILTON,
LOBLAW PHARMACY #4365,50 DUNDURN ST ,HAMILTON ,Ontario ,L8P4W3,HAMILTON,
PEOPLE'S PHARMACHOICE,4-30 RYMAL RD E ,HAMILTON ,Ontario ,L9B1T7,HAMILTON,
FIRST PLACE PHARMACY,350 KING ST E ,HAMILTON ,Ontario ,L8N3Y3,HAMILTON,
RASTIN'S WILSON ST PHARMACY,323 WILSON ST E ,ANCASTER ,Ontario ,L9G4A8,HAMILTON,
MARCHESE PHARMACY,316 JAMES ST N ,HAMILTON ,Ontario ,L8L1H2,HAMILTON,
STONECHURCH PHARMACY,3-25 REDMOND DR ,HAMILTON ,Ontario ,L8W3K7,HAMILTON,
FOOD BASICS PHARMACY #580,751 UPPER JAMES ST S ,HAMILTON ,Ontario ,L9C3A1,HAMILTON,
METRO PHARMACY #504,1161 BARTON ST E ,HAMILTON ,Ontario ,L8H2V2,HAMILTON,
PHARMASAVE #955,105 KING STREET WEST ,DUNDAS ,Ontario ,L9H6Y6,HAMILTON,
REXALL #8211,730 UPPER JAMES ST ,HAMILTON ,Ontario ,L9C2Z9,HAMILTON,
CITY CENTRE IDA PHARMACY,77 JAMES ST. N #131 ,HAMILTON ,Ontario ,L8R2K3,HAMILTON,
SOBEYS PHARMACY #7213,977 GOLF LINKS RD ,ANCASTER ,Ontario ,L8G3T9,HAMILTON,
TLS REGAL CARE DRUG MART,2-480 STONE CHURCH RD E ,HAMILTON ,Ontario ,L8W0B1,HAMILTON,
PHARMASAVE #953,1575 UPPER OTTTAWA ST ,HAMILTON ,Ontario ,L8W3E2,HAMILTON,
SHERMAN IDA PHARMACY,675 RYMAL RD E ,HAMILTON ,Ontario ,L8W1B5,HAMILTON,
SUTHERLAND'S PHARMACY LIMITED,180 JAMES ST S ,HAMILTON ,Ontario ,L8P4V1,HAMILTON,
RYMAL GAGE PHARMACY,153-905 RYMAL ROAD EAST ,HAMILTON ,Ontario ,L8W3M2,HAMILTON,
SHOPPERS DRUG MART #1460,1341 MAIN ST WEST ,HAMILTON ,Ontario ,L8S1C6,HAMILTON,
MOUNTAIN VIEW PHARMACY CLINIC,26-1070 STONE CHURCH ROAD EAST ,HAMILTON ,Ontario ,L8W3K8,HAMILTON,
SHOPPERS DRUG MART #987,150 SIDNEY STREET ,BELLEVILLE ,Ontario ,K8P5E2,HASTINGS PRINCE EDWARD,
GEEN'S PHARMASAVE,305 NORTH FRONT ST ,BELLEVILLE ,Ontario ,K8P3C3,HASTINGS PRINCE EDWARD,
SHOPPERS DRUG MART #601,390 NORTH FRONT ST ,BELLEVILLE ,Ontario ,K8P3E1,HASTINGS PRINCE EDWARD,
SHOPPERS DRUG MART #1309,405 DUNDAS ST E ,BELLEVILLE ,Ontario ,K8N1E7,HASTINGS PRINCE EDWARD,
WAL-MART PHARMACY,2ND DUG HILL ROAD ,TRENTON ,Ontario ,K8V5P7,HASTINGS PRINCE EDWARD,
DELLAR'S IDA DRUG STORE,249 VICTORIA ST N ,TWEED ,Ontario ,K0K3J0,HASTINGS PRINCE EDWARD,
REXALL #1008,109 DUNDAS ST EAST ,TRENTON ,Ontario ,K8V1L1,HASTINGS PRINCE EDWARD,
STIRLING PHARMACY,9D TUFTSVILLE ROAD ,STIRLING ,Ontario ,K0K3E0,HASTINGS PRINCE EDWARD,
DRUG STORE PHARMACY #4080,13311 LOYALIST PKWY CITY RD 33 ,PICTON ,Ontario ,K0K2T0,HASTINGS PRINCE EDWARD,
NICKLE'S PHARMACY,26 FORSYTH ST ,MARMORA ,Ontario ,K0K2M0,HASTINGS PRINCE EDWARD,
MADILL'S IDA PHARMACY,7 MILL ST ,FRANKFORD ,Ontario ,K0K2C0,HASTINGS PRINCE EDWARD,
PICTON CLINIC PHARMACY,1-389 MAIN ST E ,PICTON ,Ontario ,K0K2T0,HASTINGS PRINCE EDWARD,
REXALL PHARMA PLUS #2253,173 DUNDAS STREET EAST ,BELLEVILLE ,Ontario ,K8N1C9,HASTINGS PRINCE EDWARD,
NORTH HASTINGS FAMILY PHARMACY,217 HASTINGS ST N ,BANCROFT ,Ontario ,K0L1C0,HASTINGS PRINCE EDWARD,
METRO PHARMACY #532,53 QUINTE ST ,TRENTON ,Ontario ,K8V3S8,HASTINGS PRINCE EDWARD,
DRUGSTORE PHARMACY #532,HWY 8 ,GODERICH ,Ontario ,N7A3X8,HURON,
PHARMA PLUS # 1594,67 KINGSTON ST ,GODERICH ,Ontario ,N7A3K3,HURON,
EXETER GUARDIAN PHARMACY,38-44 THAMES RD E ,EXETER ,Ontario ,N0M1S3,HURON,
JAMES BROWN PHARMACY,198 JOSEPHINE ST ,WINGHAM ,Ontario ,N0G2W0,HURON,
WAL-MART PHARMACY,RR 2 ,GODERICH ,Ontario ,N7A3X8,HURON,
PHARMASAVE #9751-MICHAEL'S PH,181 CAMBRIA ROAD NORTH ,GODERICH ,Ontario ,N7A2R2,HURON,
BRUSSELS PHARMACY,453 TURNBERRY ST ,BRUSSELS ,Ontario ,N0G1H0,HURON,
SHOPPERS DRUG MART #1032,510 EXMOUTH ST ,SARNIA ,Ontario ,N7T5P3,LAMBTON,
REXALL #6914,697 CATHCART BLVD ,SARNIA ,Ontario ,N7V2N6,LAMBTON,
SHOPPERS DRUG MART #1226,2727 COUNTRY RD 43 ,KEMPTVILLE ,Ontario ,K0G1J0,"LEEDS,GRENVILLE,LANARK",
PORTLAND PHARMACY,2751 HWY 15 , PORTKAND , Ontario , K0G1V0,"LEEDS,GRENVILLE,LANARK",
SHOPPERS DRUG MART #935,2399 PARKEDALE AVE ,BROCKVILLE ,Ontario ,K6V3G9,"LEEDS,GRENVILLE,LANARK",
PERTH DOWNTOWN PHARMASAVE,57 FOSTER ST ,PERTH ,Ontario ,K7H1R9,"LEEDS,GRENVILLE,LANARK",
THE DRUGSTORE PHARMACY #4092,25 FERRARA DR ,SMITHS FALLS ,Ontario ,K7A5K6,"LEEDS,GRENVILLE,LANARK",
SHOPPERS DRUG MART #1143,615 KINGS ST EAST ,GANANOQUE ,Ontario ,K7G1H4,"LEEDS,GRENVILLE,LANARK",
CARLETON PLACE IDA DRUG MART,47 LANSDOWNE AVE ,CARLETON PLACE ,Ontario ,K7C3S9,"LEEDS,GRENVILLE,LANARK",
SHOPPERS DRUG MART #1455,376 OTTAWA ST ,ALMONTE ,Ontario ,K0A1A0,"LEEDS,GRENVILLE,LANARK",
SHOPPERS DRUG MART #1317,54 BECKWITH ST N ,SMITH FALLS ,Ontario ,K7A2B5,"LEEDS,GRENVILLE,LANARK",
WESTPORT VILLAGE PHARMACY,3 CHURCH STREET ,WESTPORT ,Ontario ,K0G1X0,"LEEDS,GRENVILLE,LANARK",
REXALL,30 PEARL ST WEST ,BROCKVILLE ,Ontario ,K6V4B5,"LEEDS,GRENVILLE,LANARK",
LOBLAW PHARMACY,2600 HWY 43 W UNIT 1 ,KEMPTVILLE ,Ontario ,K0G1J0,"LEEDS,GRENVILLE,LANARK",
ELGIN DRUGS,14 MAIN ST ,ELGIN ,Ontario ,K0G1E0,"LEEDS,GRENVILLE,LANARK",
SHOPPERS DRUG MART #1506,231 KING ST W ,PRESCOTT ,Ontario ,K0E1T0,"LEEDS,GRENVILLE,LANARK",
MERRICKVILLE DRUG MART,112 WELLINGTON ST E ,MERRICKVILLE ,Ontario ,K0G1N0,"LEEDS,GRENVILLE,LANARK",
WAL-MART PHARMACY,340 COLONNADE DR ,KEMPTVILLE ,Ontario ,K0G1J0,"LEEDS,GRENVILLE,LANARK",
SHOPPERS DRUG MART 1453,299 LAKE AVE E ,CARLETON PLACE ,Ontario ,K7C1J3,"LEEDS,GRENVILLE,LANARK",
KEMPTVILLE DRUGMART,19-20-2600 HWY. 43 ,KEMPTVILLE ,Ontario ,K0G1J0,"LEEDS,GRENVILLE,LANARK",
SMITHS FALLS FAMILY PHARMACY,2-207 BROCKVILLE ST ,SMITHS FALLS ,Ontario ,K7A3Z3,"LEEDS,GRENVILLE,LANARK",
PARKEDALE PHARMACY,2235 PARKEDALE AVENUE ,BROCKVILLE ,Ontario ,K6V6B2,"LEEDS,GRENVILLE,LANARK",
PHARMA WELL DRUGMART,4-106 DRYHAN WAY PO BX 189 ,SEELEY'S BAY ,Ontario ,K0H2N0,"LEEDS,GRENVILLE,LANARK",
PERTH MEWS PHARMACY,095-80 DUFFERIN ST ,PERTH ,Ontario ,K7H3A7,"LEEDS,GRENVILLE,LANARK",
COSTCO PHARMACY # 508,4313 WELLINGTON RD S ,LONDON ,Ontario ,N6E2Z8,MIDDLESEX-LONDON,
SHOPPERS DRUG MART #1065,1224 COMMISSIONERS RD W ,LONDON ,Ontario ,N6K1C7,MIDDLESEX-LONDON,
SHOPPERS DRUG MART #1071,78 FRONT ST E ,STRATHROY ,Ontario ,N7G1Y7,MIDDLESEX-LONDON,
SHOPPERS DRUG MART 1278,1186 OXFORD ST W ,LONDON ,Ontario ,N6H2N2,MIDDLESEX-LONDON,
SHOPPERS DRUG MART #732,467 WHARNCLIFFE RD. S ,LONDON ,Ontario ,N6J2M8,MIDDLESEX-LONDON,
SHOPPERS DRUG MART #765,142 CLARK RD ,LONDON ,Ontario ,N5W5E1,MIDDLESEX-LONDON,
SHOPPERS DRUG MART #766,1365 HURON ST ,LONDON ,Ontario ,N5V2E3,MIDDLESEX-LONDON,
SHOPPERS DRUG MART #764,L104-1680 RICHMOND ST N ,LONDON ,Ontario ,N6G3Y9,MIDDLESEX-LONDON,
REXALL #1859,1593 ADELAIDE ST NORTH ,LONDON ,Ontario ,N5X4E8,MIDDLESEX-LONDON,
SHOPPERS DRUG MART #737,1657 DUNDAS STREET EAST ,LONDON ,Ontario ,N5W3C6,MIDDLESEX-LONDON,
SHOPPERS DRUG MART #1069,2300 DORCHESTER RD ,DORCHESTER ,Ontario ,N0L1G3,MIDDLESEX-LONDON,
SHOPPERS DRUG MART 1401,3090 COLONEL TALBOT RD ,LONDON ,Ontario ,N6P0B3,MIDDLESEX-LONDON,
REXALL #1875,740 HYDE PARK RD ,LONDON ,Ontario ,N6H3W9,MIDDLESEX-LONDON,
SHOPPERS DRUG MART #1080,1118 ADELAIDE STREET NORTH ,LONDON ,Ontario ,N5Y2N5,MIDDLESEX-LONDON,
GLENCOE PHARMACY,253 MAIN STREET ,GLENCOE ,Ontario ,N0L1M0,MIDDLESEX-LONDON,
WAL-MART PHARMACY,330 CLARKE RD ,LONDON ,Ontario ,N5W6G4,MIDDLESEX-LONDON,
REXALL #1073,1240 COMMISSIONERS RD WEST ,LONDON ,Ontario ,N6K1C7,MIDDLESEX-LONDON,
DRUGSTORE PHARMACY #2823,626 VICTORIA ST ,STRATHROY ,Ontario ,N7G3C1,MIDDLESEX-LONDON,
INCARE HEALTH PHARMACY,1-14351 MEDWAY RD ,ARVA ,Ontario ,N0M1C0,MIDDLESEX-LONDON,
WAL-MART PHARMACY,1280 FANSHAWE PARK RD W ,LONDON ,Ontario ,N6G5B1,MIDDLESEX-LONDON,
WAL-MART PHARMACY,WHITE OAKS MALL ,LONDON ,Ontario ,N6E1V4,MIDDLESEX-LONDON,
REXALL # 1790,1375 BEAVERBROOK AVE ,LONDON ,Ontario ,N6H0J1,MIDDLESEX-LONDON,
GREENHILLS PHARMACY LTD,2335 MAIN ST ,LONDON ,Ontario ,N6P1A7,MIDDLESEX-LONDON,
REXALL SPECILATY #8101,841-845 CONSORTIUM COURT ,LONDON ,Ontario ,N6E2S8,MIDDLESEX-LONDON,
BOSSONS PHARMACY,35 FRONT ST W ,STRATHROY ,Ontario ,N7G1X5,MIDDLESEX-LONDON,
SHOPPERS DRUG MART #736,100-431 RICHMOND ST ,LONDON ,Ontario ,N6A6E2,MIDDLESEX-LONDON,
REXALL #1768,1795 ERNEST AVE ,LONDON ,Ontario ,N6E2V5,MIDDLESEX-LONDON,
WAL-MART PHARMACY,150 CARROLL ST E ,STRATHROY ,Ontario ,N7G3H3,MIDDLESEX-LONDON,
LUCAN DRUG MART,180 MAIN ST ,LUCAN ,Ontario ,N0M2J0,MIDDLESEX-LONDON,
SHOPPERS DRUG MART #1066,510 HAMILTON RD ,LONDON ,Ontario ,N5Z1S4,MIDDLESEX-LONDON,
LOBLAW PHARMACY #4386,635 SOUTHDALE RD E ,LONDON ,Ontario ,N6E3W6,MIDDLESEX-LONDON,
LOBLAW PHARMACY #1016,3040 WONDERLAND RD S ,LONDON ,Ontario ,N6L1A6,MIDDLESEX-LONDON,
REXALL #1795,1505 HIGHBURY AVE NORTH ,LONDON ,Ontario ,N5Y0A9,MIDDLESEX-LONDON,
DRUG STORE PHARMACY #4244,7 BASELINE RD E ,LONDON ,Ontario ,N6C5Z8,MIDDLESEX-LONDON,
DRUGSTORE PHARMACY #4283,599 FANSHAWE PARK RD W ,LONDON ,Ontario ,N6G5B3,MIDDLESEX-LONDON,
MCINTYRE PHARMACY,238 MAIN STREET ,PARKHILL ,Ontario ,N0M2K0,MIDDLESEX-LONDON,
DRUGSTORE PHARMACY #1091,825 OXFORD ST E ,LONDON ,Ontario ,N5Y3J8,MIDDLESEX-LONDON,
KOMOKA PHARMACY,9952 GLENDON DR ,KOMOKA ,Ontario ,N0L1R0,MIDDLESEX-LONDON,
DINI IDA PHARMACY,C02-785 WONDERLAND ROAD SOUTH ,LONDON ,Ontario ,N6K1M6,MIDDLESEX-LONDON,
DELAWARE PHARMACY,11569 LONGWOODS RD ,DELAWARE ,Ontario ,N0L1E0,MIDDLESEX-LONDON,
TMC PHARMACY,990 GAINSBOROUGH RD ,LONDON ,Ontario ,N6H5L4,MIDDLESEX-LONDON,
PHARMASAVE #9662,77 ANISHINAABEG DRIVE ,MUNCEY ,Ontario ,N0L1Y0,MIDDLESEX-LONDON,
SHOPPERS DRUG MART #1390,1105 WELLINGTON RD ,LONDON ,Ontario ,N6E1V4,MIDDLESEX-LONDON,
ILDERTON MEDICAL PHARMACY,1-13187 ILDERTON RD ,ILDERTON ,Ontario ,N0M2A0,MIDDLESEX-LONDON,
THE HEALTH DEPOT,629 CONSORTIUM CRT ,LONDON ,Ontario ,N6E2S8,MIDDLESEX-LONDON,
SHOPPERS DRUG MART #1191,20 HWY 20 E ,FONTHILL ,Ontario ,L0S1E0,NIAGARA,
SHOPPERS DRUG MART #1186,275 FOURTH AVE ,ST CATHARINES ,Ontario ,L2S0C2,NIAGARA,
SHOPPERS DRUG MART #794,150 MAIN ST E ,GRIMSBY ,Ontario ,L3M1P1,NIAGARA,
SHOPPERS DRUG MART #799,6565 LUNDY'S LANE ,NIAGARA FALLS ,Ontario ,L2G1V1,NIAGARA,
LOBLAW PHARMACY #537,6940 MORRISON ST ,NIAGARA FALLS ,Ontario ,L2E7K5,NIAGARA,
BOGGIO FONTHILL PHARMACY I.D.A,155 HIGHWAY 20 WEST ,FONTHILL ,Ontario ,L0S1E0,NIAGARA,
SHOPPERS DRUG MART #1256,5005 SERENA DRIVE ,BEAMSVILLE ,Ontario ,L0R1B4,NIAGARA,
FAMILY HEALTH PHARMACY PELHAM,A6-130 HIGHWAY 20 E ,FONTHILL ,Ontario ,L0S1E6,NIAGARA,
FOOD BASICS PHARMACY #522,3770 MONTROSE RD ,NIAGARA FALLS ,Ontario ,L2H3K3,NIAGARA,
LOBLAW PHARMACY,411 LOUTH ST ,ST CATHARINES ,Ontario ,L2S4A2,NIAGARA,
DRUGSTORE PHARMACY #2806,361 SOUTH SERVICE RD ,GRIMSBY ,Ontario ,L3M4E8,NIAGARA,
STONE ROAD PHARMACY,1630 NIAGARA STONE ROAD ,VIRGIL ,Ontario ,L0S1T0,NIAGARA,
PHARMASHIELD DISPENSARY,5400 PORTAGE RD ,NIAGARA FALLS ,Ontario ,L2G5X7,NIAGARA,
FALLS PHARMACY LTD,6635 DRUMMOND RD ,NIAGARA FALLS ,Ontario ,L2G4N4,NIAGARA,
HEALTHMAX PHARMACY,1-366 BUNTING RD ,ST CATHARINES ,Ontario ,L2M3Y6,NIAGARA,
WAL-MART PHARMACY #1164,221 GLENDALE AVE ,ST CATHARINES ,Ontario ,L2T2K9,NIAGARA,
HEALTH PLUS PHARMACY,6360 LUNDY'S LANE ,NIAGARA FALLS ,Ontario ,L2G1T6,NIAGARA,
SOBEYS PHARMACY #7250,343 GLENDALE AV ,ST CATHARINES ,Ontario ,L2T0A1,NIAGARA,
MAIN ST PHARMACY,5904 MAIN ST ,NIAGARA FALLS ,Ontario ,L2G2Z8,NIAGARA,
COSTCO PHARMACY #540,1849 MERIVALE RD ,NEPEAN ,Ontario ,K2G1E3,OTTAWA,
SHOPPERS DRUG MART #630,6491 JEANNE D'ARC BLVD ,OTTAWA ,Ontario ,K1C2R1,OTTAWA,
SHOPPERS DRUG MART #1528,181 GREENBANK RD ,OTTAWA ,Ontario ,K2H5V6,OTTAWA,
SHOPPERS DRUG MART #635,2515 BANK ST ,OTTAWA ,Ontario ,K1V8R9,OTTAWA,
SHOPPERS DRUG MART #620,1180 WALKLEY RD ,OTTAWA ,Ontario ,K1V2M5,OTTAWA,
SHOPPERS DRUG MART #1302,3151 STRANDHERD DR ,NEPEAN ,Ontario ,K2J5N1,OTTAWA,
SHOPPERS DRUG MART #628,1309 CARLING AVE ,OTTAWA ,Ontario ,K1Z7L3,OTTAWA,
SHOPPERS DRUG MART #622,1-2148 CARLING AVE ,OTTAWA ,Ontario ,K2A1H1,OTTAWA,
SHOPPERS DRUG MART #1258,700-702 BANK STREET ,OTTAWA ,Ontario ,K1S3V2,OTTAWA,
SHOPPERS DRUG MART #1246,1300 STITTSVILLE MAIN STREET ,STITTSVILLE ,Ontario ,K2S1A3,OTTAWA,
SHOPPERS DRUG MART #629,3310 MCCARTHY RD ,OTTAWA ,Ontario ,K1V9S1,OTTAWA,
DRUGSTORE PHARMACY #2813,760 EAGLESON RD ,KANATA ,Ontario ,K2M0A7,OTTAWA,
STITTSVILLE DRUG MART,STITTSVILLE SHOPPING CENTRE ,STITTSVILLE ,Ontario ,K2S1S9,OTTAWA,
LOBLAW PHARMACY,1226 PLACE D'ORLÉANS DR ,GLOUCESTER ,Ontario ,K1C1L2,OTTAWA,
SHOPPERS DRUG MART #1442,1-4744 BANK ST ,OTTAWA ,Ontario ,K1T0K8,OTTAWA,
WESTBORO PHARMASAVE,205-421 RICHMOND ROAD ,OTTAWA ,Ontario ,K2A4H1,OTTAWA,
GLEBE APOTHECARY,778 BANK ST ,OTTAWA ,Ontario ,K1S3V6,OTTAWA,
SHOPPERS DRUG MART #1139,3940 INNES RD ,ORLEANS ,Ontario ,K1W1K9,OTTAWA,
WAL-MART PHARMACY,2210 BANK ST ,OTTAWA ,Ontario ,K1V0Y5,OTTAWA,
LOBLAW PHARMACY #1051,1980 OGILVIE RD ,OTTAWA ,Ontario ,K1J9L3,OTTAWA,
SHOPPERS DRUG MART #634,2638 INNES RD ,GLOUCESTER ,Ontario ,K1B4Z5,OTTAWA,
WAL-MART PHARMACY,3651 STRANDHERD DR ,NEPEAN ,Ontario ,K2J4G8,OTTAWA,
DRUGSTORE PHARMACY #1014,100 MCARTHUR AVE ,VANIER ,Ontario ,K1L6P9,OTTAWA,
REXALL #8186,832 MARCH RD ,KANATA ,Ontario ,K2W0C9,OTTAWA,
REXALL #380,106-900 GREENBANK RD ,NEPEAN ,Ontario ,K2J1S8,OTTAWA,
LOBLAW PHARMACY 1188,2210C BANK ST ,OTTAWA ,Ontario ,K1V1J5,OTTAWA,
RICHMOND IDA PHARMACY,6265 PERTH ST ,RICHMOND ,Ontario ,K0A2Z0,OTTAWA,
REXALL #6971,1160 BEAVERWOOD ROAD ,MANOTICK ,Ontario ,K4M1A3,OTTAWA,
REXALL #2204,300 EAGLESON RD ,KANATA ,Ontario ,K2M1C9,OTTAWA,
SHOPPERS DRUG MART #988,174 BANK ST ,OTTAWA ,Ontario ,K2P1W6,OTTAWA,
SHOPPERS DRUG MART #1387,3080 CARLING AVE ,OTTAWA ,Ontario ,K2B7K2,OTTAWA,
WEST CARLTON DRUG MART,461 DONALD B. MUNRO DRIVE ,CARP ,Ontario ,K0A1L0,OTTAWA,
SHOPPERS DRUG MART #1325,5709 HAZELDEAN RD ,STITTSVILLE ,Ontario ,K2S0P6,OTTAWA,
SHOPPERS DRUG MART #1463,1080 BANK STREET ,OTTAWA ,Ontario ,K1S3X3,OTTAWA,
SHOPPERS DRUG MART #1527,1582 BANK ST ,OTTAWA ,Ontario ,K1H7Z5,OTTAWA,
WAL-MART PHARMACY #3066,10-100 BAYSHORE DR ,OTTAWA ,Ontario ,K2B8C1,OTTAWA,
DRUGSTORE PHARMACY # 1009,190 RICHMOND RD ,OTTAWA ,Ontario ,K1Z6W6,OTTAWA,
REXALL #1453,4048 CARLING AVE ,KANATA ,Ontario ,K2K1Y1,OTTAWA,
REXALL #1156,144-1980 OGILVIE RD ,GLOUCESTER ,Ontario ,K1J9L3,OTTAWA,
HUNT CLUB PHARMACY,7-2430 BANK STREET ,OTTAWA ,Ontario ,K1V0T7,OTTAWA,
REXALL #1149,1363B WOODROFFE AVE ,NEPEAN ,Ontario ,K2G1V7,OTTAWA,
REXALL #8134,753 MONTREAL RD ,OTTAWA ,Ontario ,K1K0T1,OTTAWA,
REXALL #6969,2144 ROBERTSON RD ,NEPEAN ,Ontario ,K2H5Z1,OTTAWA,
BELL PHARMACY,737 GLADSTONE AVE ,OTTAWA ,Ontario ,K1R6X4,OTTAWA,
WAL-MART PHARMACY,450 TERMINAL AV ,OTTAWA ,Ontario ,K1G0Z3,OTTAWA,
SHOPPERS DRUG MART #621,1200 ST LAURENT BLVD ,OTTAWA ,Ontario ,K1K3B8,OTTAWA,
SHOPPERS DRUG MART #1161,647 EARL ARMSTRONG RD ,GLOUCESTER ,Ontario ,K1V2G2,OTTAWA,
BLOSSOM PARK PHARMACY,2928 BANK ST ,OTTAWA ,Ontario ,K1T1N6,OTTAWA,
LOBLAW PHARMACY #4253,671 RIVER RD ,GLOUCESTER ,Ontario ,K1V2G2,OTTAWA,
SHOPPERS DRUG MART #1550,2446 BANK ST ,OTTAWA ,Ontario ,K1V1A4,OTTAWA,
THE MEDICINE SHOPPE,19-5303 CANOTEK RD ,OTTAWA ,Ontario ,K1J9M1,OTTAWA,
WAL-MART PHARMACY #1200,2277 RIVERSIDE DRIVE ,OTTAWA ,Ontario ,K1H7X6,OTTAWA,
FALLOWFIELD PHARMACY,1B-3500 FALLOWFIELD RD ,OTTAWA ,Ontario ,K2J4A7,OTTAWA,
SHAS PHARMACY LTD,1428 WALKLEY ROAD ,OTTAWA ,Ontario ,K1V6P5,OTTAWA,
REXALL #8151,0160-110 PLACE D'ORLEANS DR ,ORLEANS ,Ontario ,K1C2L9,OTTAWA,
DRUGSTORE PHARMACY #4284,3777 STRANDHERD DR ,NEPEAN ,Ontario ,K2J4B1,OTTAWA,
GREENBANK HUNT CLUB PHARMACY,250 GREENBANK ROAD ,OTTAWA ,Ontario ,K2H8X4,OTTAWA,
NORTH GOWER PHARMACY,7-2333 CHURCH STREET ,NORTH GOWER ,Ontario ,K0A2T0,OTTAWA,
RICHMOND VILLAGE PHARMACY,6146 PERTH STREET ,RICHMOND ,Ontario ,K0A2Z0,OTTAWA,
LOBLAW PHARMACY 1082,1460 MERIVALE RD ,OTTAWA ,Ontario ,K2E5P2,OTTAWA,
SOUTH OTTAWA PHARMACY,3QA-1650 QUEENSDALE AVE ,OTTAWA ,Ontario ,K1T1N8,OTTAWA,
CEDARVIEW GUARDIAN PHARMACY,12-4100 STRANDHERD DR ,NEPEAN ,Ontario ,K2J0V2,OTTAWA,
PHARMACIE MEDICI PHARMACY,100-1200 COLONIAL ROAD ,NAVAN ,Ontario ,K4B1J5,OTTAWA,
BANK STREET PHARMACY,2531-A BANK STREET ,OTTAWA ,Ontario ,K1V8R9,OTTAWA,
MOONEY'S BAY PHARMACY,743 RIDGEWOOD AVENUE ,OTTAWA ,Ontario ,K1V6M8,OTTAWA,
EVANS MEDICAL PHARMACY,1194 KARN PL ,OTTAWA ,Ontario ,K1H7Z8,OTTAWA,
BANK STREET MEDICAL PHARMACY,1935 BANK STREET ,OTTAWA ,Ontario ,K1V8A3,OTTAWA,
METRO PHARMACY #563,4510 INNES ROAD ,OTTAWA ,Ontario ,K4A4C5,OTTAWA,
REXALL #1255,C102-240 SPARKS ST ,OTTAWA ,Ontario ,K1A0G6,OTTAWA,
SOUTHKEYS PHARMACY,1883 BANK STREET ,OTTAWA ,Ontario ,K1V7Z9,OTTAWA,
WHOLE HEALTH PHARMACY GLEBE,857A BANK ST ,OTTAWA ,Ontario ,K1S3W2,OTTAWA,
HAZELDEAN PHARMACY,6150 HAZELDEAN RD ,STITTSVILLE ,Ontario ,K2S1B9,OTTAWA,
VITAL PHARMACY,3-224 HUNT CLUB ROAD ,OTTAWA ,Ontario ,K1V1C1,OTTAWA,
KANATA COMPOUNDING PHARMACY,150 KATIMAVIK ROAD ,KANATA ,Ontario ,K2L2N2,OTTAWA,
PROACTIVE PHARMACY,102-1645 BANK ST ,OTTAWA ,Ontario ,K1V7Z1,OTTAWA,
BRIDLE PATH PHARMACY,6-4000 BRIDLE PATH DR ,GLOUCESTER ,Ontario ,K1T2C4,OTTAWA,
REXALL PHARMACY,160 ELGIN ST ,OTTAWA ,Ontario ,K2P2C4,OTTAWA,
PROMED PHARMACY,2706 ALTA VISTA DR ,OTTAWA ,Ontario ,K1V7T4,OTTAWA,
HYBRID PHARM,318 RICHMOND RD ,OTTAWA ,Ontario ,K1Z6X6,OTTAWA,
COSTCO PHARMACY #1169,1570 DUNDAS STREET EAST ,MISSISSAUGA ,Ontario ,L4X1L4,PEEL,
SHOPPERS DRUG MART #704,180 SANDALWOOD PKWY ,BRAMPTON ,Ontario ,L6Z1Y4,PEEL,
SHOPPERS DRUG MART #779,6975 MEADOWVALE TOWN CENTRE ,MISSISSAUGA ,Ontario ,L5N2W7,PEEL,
SHOPPERS DRUG MART #776,HURON SQUARE ,MISSISSAUGA ,Ontario ,L5B0H2,PEEL,
SHOPPERS DRUG MART #771,2126 BURNAMTHORPE RD W ,MISSISSAUGA ,Ontario ,L5L3A2,PEEL,
SHOPPERS DRUG MART #507,1077 NORTH SERVICE ROAD ,MISSISSAUGA ,Ontario ,L4Y1A6,PEEL,
SHOPPERS DRUG MART # 815,321 LAKESHORE RD W ,MISSISSAUGA ,Ontario ,L5H1G9,PEEL,
SHOPPERS DRUG MART #774,700 BURNHAMTHORPE RD E ,MISSISSAUGA ,Ontario ,L4Y2X3,PEEL,
SHOPPERS DRUG MART #695,920 SOUTHDOWN RD ,MISSISSAUGA ,Ontario ,L5J2Y4,PEEL,
SHOPPERS DRUG MART #834,49 MOUNTAIN ASH RD ,BRAMPTON ,Ontario ,L6R1W4,PEEL,
MEDICAL BUILDING PHARMACY,21 QUEENSWAY W ,MISSISSAUGA ,Ontario ,L5B1B6,PEEL,
LOBLAW PHARMACY,5010 GLEN ERIN DR ,MISSISSAUGA ,Ontario ,L5M6J3,PEEL,
SHOPPERS DRUG MART #693,980 CENTRAL PARK DR ,BRAMPTON ,Ontario ,L6S3L7,PEEL,
SHOPPERS DRUG MART #1058,1 KENNEDY ROAD SOUTH ,BRAMPTON ,Ontario ,L6W3C9,PEEL,
ERIN MILLS IDA PHARMACY,4099 ERIN MILLS PKWY ,MISSISSAUGA ,Ontario ,L5L3P9,PEEL,
SHOPPERS DRUG MART #735,3029 CLAYHILL RD ,MISSISSAUGA ,Ontario ,L5B4L2,PEEL,
SHOPPERS DRUG MART #1353,366 MAIN ST N ,BRAMPTON ,Ontario ,L6V1P8,PEEL,
SHOPPERS DRUG MART #1275,579A LAKESHORE RD E ,MISSISSAUGA ,Ontario ,L5G1H9,PEEL,
SHOPPERS DRUG MART #1098,3163 WINSTON CHURCHILL BLVD ,MISSISSAUGA ,Ontario ,L5L2W1,PEEL,
SHOPPERS DRUG MART #976,1125 BLOOR STREET EAST ,MISSISSAUGA ,Ontario ,L4Y2N6,PEEL,
WELLNESS HEALTHCARE PHARMACY,1170 BURNHAMTHORPE RD W UNIT 8 ,MISSISSAUGA ,Ontario ,L5C4E6,PEEL,
SHOPPERS DRUG MART #831,1 QUEENSGATE BLVD ,BOLTON ,Ontario ,L7E2X7,PEEL,
SHOPPERS DRUG MART #906,1891 RATHBURN RD E ,MISSISSAUGA ,Ontario ,L4W3Z3,PEEL,
PROFESSIONAL MEDICAL PHARMACY,101-1420 BURNHAMTHORPE RD E ,MISSISSAUGA ,Ontario ,L4X2Z9,PEEL,
WAL-MART PHARMACY,3155 ARGENTIA RD ,MISSISSAUGA ,Ontario ,L5N8E1,PEEL,
ULTRA MED PHARMACY LTD,31 STEEPLE BUSH AVE UNIT 4 ,BRAMPTON ,Ontario ,L6R2B4,PEEL,
WAL-MART PHARMACY,2160 BURNAMTHORPE RD W ,MISSISSAUGA ,Ontario ,L5L5Z5,PEEL,
SHOPPERS DRUG MART #1369,10970 AIRPORT RD UNIT B ,BRAMPTON ,Ontario ,L6R0E1,PEEL,
SHOPPERS DRUG MART #1225,10661 CHINGUACOUSY RD ,BRAMPTON ,Ontario ,L7A0N5,PEEL,
SHOPPERS DRUG MART # 1092,8965 CHINGUACOUSY RD ,BRAMPTON ,Ontario ,L6Y0J2,PEEL,
LOBLAW PHARMACY #2801,85 STEELES AVE W ,BRAMPTON ,Ontario ,L6Y0K3,PEEL,
SHOPPERS SIMPLY PHARMACY#3072,3530 DERRY RD E ,MISSISSAUGA ,Ontario ,L4T4E3,PEEL,
DRUG STORE PHARMACY #4077,620 EGLINTON AVE W ,MISSISSAUGA ,Ontario ,L5R3V2,PEEL,
SHOPPERS DRUG MART #1199,10088 MCLAUGHLIN RD ,BRAMPTON ,Ontario ,L7A2X6,PEEL,
MAIN STREET PHARMACY,101-60 GILLINGHAM DRIVE ,BRAMPTON ,Ontario ,L6X0Z9,PEEL,
CHARLOLAIS PHARMACY,305 CHAROLAIS BLVD ,BRAMPTON ,Ontario ,L6Y2R2,PEEL,
SPRINGDALE PHARMACY,630 PETER ROBERTSON BLVD ,BRAMPTON ,Ontario ,L6R1T4,PEEL,
REXALL,227 VODDEN ST EAST ,BRAMPTON ,Ontario ,L6V1N2,PEEL,
SHOPPERS DRUG MART #907,6040 GLEN ERIN DRIVE ,MISSISSAUGA ,Ontario ,L5N3M4,PEEL,
SHOPPERS DRUG MART #711,720 BRISTOL RD W ,MISSISSAUGA ,Ontario ,L5R4A3,PEEL,
REXALL,1-1375 SOUTHDOWN RD ,MISSISSAUGA ,Ontario ,L5J2Z1,PEEL,
WAL-MART PHARMACY,30 COVENTRY RD ,BRAMPTON ,Ontario ,L6T5P9,PEEL,
SOUTHGATE PHARMACY,11C-700 BALMORAL DR ,BRAMPTON ,Ontario ,L6T1X2,PEEL,
REXALL #2378,3100 DIXIE RD ,MISSISSAUGA ,Ontario ,L4Y2A0,PEEL,
THE DRUG STORE PHARMACY #4079,295 QUEEN ST E ,BRAMPTON ,Ontario ,L6W3R1,PEEL,
CALEDON EAST PHARMACY,15771 AIRPORT RD UNIT 1 ,CALEDON EAST ,Ontario ,L7C1K2,PEEL,
BRAMEAST PHARMACY,2130 NORTH PARK DR UNIT #43-44 ,BRAMPTON ,Ontario ,L6S0C9,PEEL,
SHOPPERS DRUG MART #1272,128 QUEEN STREET S ,MISSISSAUGA ,Ontario ,L5M1K8,PEEL,
REXALL,F001-6045 CREDITVIEW RD ,MISSISSAUGA ,Ontario ,L5V2A8,PEEL,
DRUGSTORE PHARMACY #4066,55 MOUNTAINASH RD ,BRAMPTON ,Ontario ,L6R1W4,PEEL,
KING MEDICAL ARTS PHARMACY,71 KING ST W ,MISSISSAUGA ,Ontario ,L5B4A2,PEEL,
LOBLAW PHARMCY #2841,3045 MAVIS RD ,MISSISSAUGA ,Ontario ,L5C1T7,PEEL,
CUMBERLAND PHARMACY,2- 131 KENNEDY RD N ,BRAMPTON ,Ontario ,L6V1X9,PEEL,
REXALL #2100,16-3221 DERRY RD ,MISSISSAUGA ,Ontario ,L5N7L7,PEEL,
SHOPPERS DRUG MART #701,34 A AVONDALE BLVD ,BRAMPTON ,Ontario ,L6T1H3,PEEL,
SHOPPERS DRUG MART #1326,3938 COTTRELLE BLVD ,BRAMPTON ,Ontario ,L6P2R1,PEEL,
DRUGSTORE PHARMACY #4336,6085 CREDITVIEW RD ,MISSISSAUGA ,Ontario ,L5V2A8,PEEL,
SHOPPERS DRUG MART #1057,3476 GLEN ERIN DR ,MISSISSAUGA ,Ontario ,L5L3R4,PEEL,
WAL-MART PHARMACY,800 MATHESON BLVD W ,MISSISSAUGA ,Ontario ,L5V2N6,PEEL,
SHOPPERS DRUG MART #904,5100 ERIN MILLS PKWY ,MISSISSAUGA ,Ontario ,L5M4Z5,PEEL,
SHOPPERS DRUG MART #901,7235 BELLSHIRE GATE ,MISSISSAUGA ,Ontario ,L5N8A2,PEEL,
REXALL #2080,3010 THOMAS ST ,MISSISSAUGA ,Ontario ,L5M0R4,PEEL,
HOOPER'S PHARMACY,88 LAKESHORE RD E ,MISSISSAUGA ,Ontario ,L5G1E1,PEEL,
WAL-MART PHARMACY #1137,7333 GOREWAY DRIVE ,MALTON ,Ontario ,L4T2T8,PEEL,
DUKH BHANJAN PHARMACY,B5-475 CHAROLAIS BLVD ,BRAMPTON ,Ontario ,L6Y0M2,PEEL,
REXALL #6938,2100 BOVAIRD DR ,BRAMPTON ,Ontario ,L6R3J7,PEEL,
FATHER TOBIN PHARMACY,105 FATHER TOBIN RD ,BRAMPTON ,Ontario ,L6R0W9,PEEL,
ROBINSON'S IDA PHARMACY,181 QUEEN ST S ,STREETSVILLE ,Ontario ,L5M1L2,PEEL,
SHOPPERS DRUG MART #1447,10665 BRAMALEA RD ,BRAMPTON ,Ontario ,L6R3P4,PEEL,
SHOPPERS DRUG MART #1555,2000 CREDIT VALLEY ROAD ,MISSISSAUGA ,Ontario ,L5M4N4,PEEL,
REXALL,398 QUEEN ST WEST ,BRAMPTON ,Ontario ,L6X1B3,PEEL,
SHOPPERS DRUG MART #1466,520 CHAROLAIS BLVD ,BRAMPTON ,Ontario ,L6Y0R5,PEEL,
CLARKSON PHARMACHOICE,1865 LAKESHORE RD W ,MISSISSAUGA ,Ontario ,L5J4P1,PEEL,
SANDALWOOD DRUGS,10B-30 EGLINTON AVE W ,MISSISSAUGA ,Ontario ,L5R3E7,PEEL,
DRUGSTORE PHARMACY #558,487 QUEEN ST S ,BOLTON ,Ontario ,L7E2B4,PEEL,
METRO PHARMACY #583,20 GREAT LAKES DR ,BRAMPTON ,Ontario ,L6R2K7,PEEL,
SHOPPERS SIMPLY PHARMACY #3088,380 BOVAIRD DR EAST UNIT 26 ,BRAMPTON ,Ontario ,L6S2S8,PEEL,
DRUGSTORE PHARMACY #4329,70 CLEMENTINE DR ,BRAMPTON ,Ontario ,L6Y0L8,PEEL,
THE QUEEN PHARMACY,5025 CREDITVIEW RD ,MISSISSAUGA ,Ontario ,L5V3E5,PEEL,
METRO PHARMACY #527,2225 ERIN MILLS PKWY ,MISSISSAUGA ,Ontario ,L5K1T9,PEEL,
IDA ST. PETER'S PHARMACY,20 RAMBLER DR ,BRAMPTON ,Ontario ,L6W1E2,PEEL,
MEDICAL PHARMACY,2-2735 MATHESON BLVD EAST ,MISSISSAUGA ,Ontario ,L4W4M8,PEEL,
SHOPPERS DRUG MART #1499,1-745-100 CITY CENTRE DRIVE ,MISSISSAUGA ,Ontario ,L5B2C9,PEEL,
LOBLAW PHARMACY #4393,2150 BURNHAMTHORPE RD ,MISSISSAUGA ,Ontario ,L5L3A2,PEEL,
METRO PHARMACY #554,3221 DERRY RD W ,MISSISSAUGA ,Ontario ,L5N7L7,PEEL,
THE DRUGSTORE PHARMACY #1003,5970 MCLAUGHLIN RD ,MISSISSAUGA ,Ontario ,L5R3X9,PEEL,
FANDOR PHARMACY,1A-15 FANDOR WAY ,BRAMPTON ,Ontario ,L7A4S2,PEEL,
SOBEYS PHARMACY #7204,5602 TENTH LINE W ,MISSISSAUGA ,Ontario ,L5M7L9,PEEL,
SURECARE PHARMACY,15-2575 DUNDAS STREET WEST ,MISSISSAUGA ,Ontario ,L5K2M6,PEEL,
METRO PHARMACY #509,910 SOUTHDOWN RD ,MISSISSAUGA ,Ontario ,L5G2Y4,PEEL,
SOUTHFIELDS PHARMASAVE PHARM,12531 KENNEDY RD ,CALEDON ,Ontario ,L7C3T6,PEEL,
ERINDALE MEDICAL PHARMACY,1101 ERINDALE AVE. ,MISSISSAUGA ,Ontario ,L5C1M6,PEEL,
QUEEN HANSEN PHARMACY,116-284 QUEEN STREET EAST ,BRAMPTON ,Ontario ,L6V1C2,PEEL,
NEWIN PHARMACY,30-2580 SHEPARD AVE ,MISSISSAUGA ,Ontario ,L5A4K3,PEEL,
BRAMCITY PHARMACY,14 LISA ST ,BRAMPTON ,Ontario ,L6T4W2,PEEL,
GREEN BAY PHARMACY & MED.CTR.,3015 WINSTON CHURCHILL BLVD ,MISSISSAUGA ,Ontario ,L5L2V8,PEEL,
ERIN CREEK PHARMASAVE,10-6400 MILLCREEK DR ,MISSISSAUGA ,Ontario ,L5N3E7,PEEL,
WINDWOOD PHARMACY,6-3080 WINDWOOD DR ,MISSISSAUGA ,Ontario ,L5N2K5,PEEL,
LIONHEAD PHARMACY,8405 FINANCIAL DRIVE ,BRAMPTON ,Ontario ,L6Y1M1,PEEL,
LMC PHARMACY BRAMPTON,2979 BOVAIRD DRIVE EAST ,BRAMPTON ,Ontario ,L6S0C6,PEEL,
PHARMA CENTER PHARMACY,164 QUEEN ST E UNIT 105 ,BRAMPTON ,Ontario ,L6V1B4,PEEL,
SOBEYS PHARMACY #7221,8975 CHINGUACOUSY RD ,BRAMPTON ,Ontario ,L6Y0J2,PEEL,
CREDIT RIDGE REMEDY'S RX,7-9525 MISSISSAUGA ROAD ,BRAMPTON ,Ontario ,L6X0Z8,PEEL,
POTTERS WHEEL PHARMACY,3-10725 MCLAUGHLIN ROAD ,BRAMPTON ,Ontario ,L7A3E5,PEEL,
YUAN MING PHARMACY,1000 BURNAMTHORPE RD W ,MISSISSAUGA ,Ontario ,L5C2S4,PEEL,
HERITAGE GLEN PHARMACY,6515 GLEN ERIN DR ,MISSISSAUGA ,Ontario ,L5N2X9,PEEL,
HEALING HANDS PHARMACY,22-3105 WINSTON CHURCHILL BLVD ,MISSISSAUGA ,Ontario ,L5L5S3,PEEL,
GATEWAY MEDICAL PLEX PHARMACY,3+4-25 GATEWAY BLVD. ,BRAMPTON ,Ontario ,L6T0H8,PEEL,
NORTH MEDAFIX PHARMACY,3-6905 MILLCREEK DR ,MISSISSAUGA ,Ontario ,L5N6A3,PEEL,
JACKSON'S GUARDIAN PHARMACY,32 WELLINGTON ,ST MARYS ,Ontario ,N4X1B2,PERTH,
WALTHER'S IDA PHARMACY,40 ONTARIO RD ,MITCHELL ,Ontario ,N0K1N0,PERTH,
WEST END PHARMACY,426 HURON STREET ,STRATFORD ,Ontario ,N5A5T7,PERTH,
REXALL #6910,1154 CHEMONG RD ,PETERBOROUGH ,Ontario ,K9H7J6,PETERBOROUGH,
SHOPPERS DRUG MART #1306,55 ELGIN ST WEST ,ARNPRIOR ,Ontario ,K7S1N6,RENFREW,
SHOPPERS DRUG MART #1331,811 PEMBROKE ST E ,PEMBROKE ,Ontario ,K8A3M3,RENFREW,
REXALL,339 RAGLAN ST SOUTH ,RENFREW ,Ontario ,K7V1R6,RENFREW,
CAHOON'S PHARMACY,95 DEEP RIVER ROAD ,DEEP RIVER ,Ontario ,K0J1P0,RENFREW,
REXALL,215 PEMBROKE ST EAST ,PEMBROKE ,Ontario ,K8A3J8,RENFREW,
REXALL,1100 PEMBROKE ST EAST ,PEMBROKE ,Ontario ,K8A6Y7,RENFREW,
DRUG STORE PHARMACY #4257,680 O'BRIEN RD ,RENFREW ,Ontario ,K7V3Z4,RENFREW,
SHOPPERS DRUG MART #1252,25 CIVIC CENTRE RD ,PETAWAWA ,Ontario ,K8H0B1,RENFREW,
EXCELLENT CARE PHARMACY,386 DANIEL ST S ,ARNPRIOR ,Ontario ,K7S3G9,RENFREW,
CONWAY'S PHARMACY,60 MAIN ST ,COBDEN ,Ontario ,K0J1K0,RENFREW,
REXALL,1011 VICTORIA ST ,PETAWAWA ,Ontario ,K8H2E2,RENFREW,
WHITNEY PHARMACY,29542 HWY 60 ,WHITNEY ,Ontario ,K0J2M0,RENFREW,
SHOPPERS DRUG MART #991,55 FRONT ST ,ORILLIA ,Ontario ,L3V1W7,SIMCOE-MUSKOKA,
SHOPPERS DRUG MART #650,524 BAYFIELD ST N ,BARRIE ,Ontario ,L4M5A2,SIMCOE-MUSKOKA,
COSTO PHARMACY # 1265,625 UNIVERSITY AVE ,ORILLIA ,Ontario ,L3V0Y7,SIMCOE-MUSKOKA,
WAL-MART PHARMACY,450 BAYFIELD ST ,BARRIE ,Ontario ,L4M5A2,SIMCOE-MUSKOKA,
LOBLAW PHARMACY,9292 HWY 93 ,MIDLAND ,Ontario ,L4R4K4,SIMCOE-MUSKOKA,
TOTTENHAM PHARMACY,55 QUEEN ST. S. ,TOTTENHAM ,Ontario ,L0G1W0,SIMCOE-MUSKOKA,
LOBLAW PHARMACY #4229,131 HOWLAND DR ,HUNTSVILLE ,Ontario ,P1H2P7,SIMCOE-MUSKOKA,
WAL-MART PHARMACY,545 HOLLAND ST. WEST ,BRADFORD ,Ontario ,L3Z0C1,SIMCOE-MUSKOKA,
PHARMA PLUS #1388,29-320 BAYFIELD ST ,BARRIE ,Ontario ,L4M3B9,SIMCOE-MUSKOKA,
SANDY COVE DRUG STORE,3-902 LOCKHART RD ,INNISFIL ,Ontario ,L9S4V2,SIMCOE-MUSKOKA,
PHARMA PLUS #1370,353 DUCKWORTH ST ,BARRIE ,Ontario ,L4M3X8,SIMCOE-MUSKOKA,
HOLLAND STREET PHARMACY,B3-484 HOLLAND ST W ,BRADFORD ,Ontario ,L3Z0A2,SIMCOE-MUSKOKA,
SIMCOE SQUARE PHARMACY,9-157 HOLLAND ST E ,BRADFORD ,Ontario ,L3Z2B2,SIMCOE-MUSKOKA,
SOBEYS PHARMACY #7246,40 MELBOURNE DR ,BRADFORD ,Ontario ,L3Z2B9,SIMCOE-MUSKOKA,
BRADFORD MEDEX PHARMACY,80 HOLLAND ST E ,BRADFORD ,Ontario ,L3Z2B8,SIMCOE-MUSKOKA,
SHOPPERS DRUG MART #1173,C-2 509 BAYFIELD ST ,BARRIE ,Ontario ,L4M4Z8,SIMCOE-MUSKOKA,
LOBLAW PHARMACY #505,500 HOLLAND ,BRADFORD ,Ontario ,L3Z0A2,SIMCOE-MUSKOKA,
PHARMASAVE 9717,6A 305 BARRIE ST ,BRADFORD ,Ontario ,L3Z2B1,SIMCOE-MUSKOKA,
PHARMALINK IDA PHAMRACY,2-456 HOLLAND ST. WEST ,BRADFORD ,Ontario ,L3Z0G1,SIMCOE-MUSKOKA,
PROHEALTH PHARMACY,5-480 MAPLETON AVE ,BARRIE ,Ontario ,L4N9C2,SIMCOE-MUSKOKA,
SHOPPERS DRUG MART #969,204 FIRST AVE ,ST THOMAS ,Ontario ,N5R4P5,SOUTHWESTERN,
SHOPPERS DRUG MART 1176,A-200 BROADWAY ST ,TILLSONBURG ,Ontario ,N4G5A7,SOUTHWESTERN,
COWARD PHARMACY LTD.,165 BROADWAY STREET ,TILLSONBURG ,Ontario ,N4G3P9,SOUTHWESTERN,
HEALTH CENTRE PHARMACY,230 FIRST AVE ,ST THOMAS ,Ontario ,N5R4P5,SOUTHWESTERN,
SHOPPERS DRUG MART #1171,333 DUNDAS ST ,WOODSTOCK ,Ontario ,N4S1B5,SOUTHWESTERN,
SHOPPERS DRUG MART #1174,120 THAMES ST N ,INGERSOLL ,Ontario ,N5C4B1,SOUTHWESTERN,
HIGHLAND DRUG MART,222 COLBORNE ST ,PORT STANLEY ,Ontario ,N5L1C2,SOUTHWESTERN,
LOBLAW PHARMACY #579,969 DUNDAS ST ,WOODSTOCK ,Ontario ,N4S1H2,SOUTHWESTERN,
WAL-MART PHARMACY,1063 TALBOT ST UNIT 60 ,ST THOMAS ,Ontario ,N5P1G4,SOUTHWESTERN,
DRUGSTORE PHARMACY #551,50-1063 TALBOT ST ,ST THOMAS ,Ontario ,N5P1G4,SOUTHWESTERN,
AYLMER IDA PHARMACY,6 TALBOT STREET EAST ,AYLMER ,Ontario ,N5H1H4,SOUTHWESTERN,
SHOPPERS DRUG MART #1067,410 TALBOT STREET ,ST THOMAS ,Ontario ,N5P1B9,SOUTHWESTERN,
SHOPPERS DRUG MART #1175,19 STOVER STREET NORTH ,NORWICH ,Ontario ,N0J1P0,SOUTHWESTERN,
TAVISTOCK PHARMACY,17 WOODSTOCK ST S ,TAVISTOCK ,Ontario ,N0B2R0,SOUTHWESTERN,
REXALL #6912,706 DUNDAS ST ,WOODSTOCK ,Ontario ,N4S1E7,SOUTHWESTERN,
TILLSONBURG REMEDY'S RX,400 SIMCOE ST ,TILLSONBURG ,Ontario ,N4G4X1,SOUTHWESTERN,
HIGHLAND PHARMACY,172 CURRIE RD ,DUTTON ,Ontario ,N0L1J0,SOUTHWESTERN,
PHARMASAVE ELGIN MALL,109-A-417 WELLINGTON ST ,ST THOMAS ,Ontario ,N5R5J5,SOUTHWESTERN,
HILLS CLINIC PHARMACY,420 TALBOT ST W ,AYLMER ,Ontario ,N5H1K9,SOUTHWESTERN,
REXALL #6901,379 SPRINGBANK AVE NORTH ,WOODSTOCK ,Ontario ,N4T1H3,SOUTHWESTERN,
ELMDALE MEDICAL PHARMACY,25 ELM STREET ,ST. THOMAS ,Ontario ,N5R1H5,SOUTHWESTERN,
DRUG STORE PHARMACY #4132,657 JOHN ST ,AYLMER ,Ontario ,N5H3J1,SOUTHWESTERN,
TILLSONBURG CARE PHARMACY,1-594 BROADWAY ST ,TILLSONBURG ,Ontario ,N4G3S8,SOUTHWESTERN,
LAKEVIEW PHARMACY,2-805 VANSITTART AVE ,WOODSTOCK ,Ontario ,N4T0L6,SOUTHWESTERN,
REXALL #6927,1975 BANCROFT DR ,SUDBURY ,Ontario ,P3B1T1,SUDBURY,
WAL-MART PHARMACY,1349 LASALLE BLVD ,SUDBURY ,Ontario ,P3A1Z2,SUDBURY,
SAFEWAY PHARMACY #4807,664,70 NORTH COURT STREET ,THUNDER BAY ,Ontario ,P7A4T8,THUNDER BAY
KIRKLAND PHARMACY,38 GOVERNMENT ROAD WEST ,KIRKLAND LAKE ,Ontario ,P2N2E2,TIMISKAMING,
COSTCO PHARMACY #512,4438 KING ST E ,KITCHENER ,Ontario ,N2P2G4,WATERLOO,
SHOPPERS DRUGMART #730,658 ERB ST W ,WATERLOO ,Ontario ,N2T2Z7,WATERLOO,
DRUGSTORE PHARMACY #533,400 CONESTOGA BLVD ,CAMBRIDGE ,Ontario ,N1R7L7,WATERLOO,
COSTCO PHARMACY #1248,930 ERB ST W ,WATERLOO ,Ontario ,N2J3Z4,WATERLOO,
DRUGSTORE PHARMACY #2822,875 HIGHLAND RD W ,KITCHENER ,Ontario ,N2N2Y2,WATERLOO,
DRUGSTORE PHARMACY #576,200 FRANKLIN BLVD ,CAMBRIDGE ,Ontario ,N1R5R6,WATERLOO,
SHOPPERS DRUG MART #979,1500 KING ST EAST ,CAMBRIDGE ,Ontario ,N3H3R6,WATERLOO,
SHOPPERS DRUG MART #1090,190 NORTHFIELD DRIVE WEST ,WATERLOO ,Ontario ,N2L0C7,WATERLOO,
SHOPPERS DRUG MART #731,563 HIGHLAND RD W ,KITCHENER ,Ontario ,N2M5K2,WATERLOO,
DRUGSTORE PHARMACY #560,750 OTTAWA ST S ,KITCHENER ,Ontario ,N2E1B6,WATERLOO,
SHOPPERS DRUG MART #1334,310 FAIRWAY RD S ,KITCHENER ,Ontario ,N2C1X3,WATERLOO,
REXALL #2469,585 WEBER ST ,WATERLOO ,Ontario ,N2V1V8,WATERLOO,
REXALL,425 UNIVERSITY AVE EAST ,WATERLOO ,Ontario ,N2K4C9,WATERLOO,
REXALL,537 FREDERICK ST ,KITCHENER ,Ontario ,N2B2A7,WATERLOO,
SHOPPERS DRUG MART #728,CONESTOGA MALL ,WATERLOO ,Ontario ,N2L5W6,WATERLOO,
SHOPPERS DRUG MART # 727,42,WATERLOO ,Ontario ,N2J1P2,WATERLOO,
REXALL #8169,350 CONESTOGA BLVD ,CAMBRIDGE ,Ontario ,N1R7L7,WATERLOO,
WAL-MART PHARMACY,335 FARMERS MARKET RD ,WATERLOO ,Ontario ,N2V0A4,WATERLOO,
LOBLAW PHARMACY # 4334,1540 HAYSVILLE RD ,NEW HAMBURG ,Ontario ,N3A0A2,WATERLOO,
WAL-MART PHARMACY,1400 OTTAWA ST S ,KITCHENER ,Ontario ,N2E4E2,WATERLOO,
SHOPPERS DRUG MART #1440,600 LAURELWOOD DR ,WATERLOO ,Ontario ,N2V0A2,WATERLOO,
FOOD BASICS PHARMACY #559,370 HIGHLAND RD W ,KITCHENER ,Ontario ,N2M3C7,WATERLOO,
HESPELER PHARMACY,1000 JAMIESON PKWY UNIT 13 ,CAMBRIDGE ,Ontario ,N3C4B3,WATERLOO,
POLLOCK & WILLIAMS PHARMACY,307 LANCASTER ST WEST ,KITCHENER ,Ontario ,N2H4V4,WATERLOO,
DRUGSTORE PHARMACY #525,315 LINCOLN RD ,WATERLOO ,Ontario ,N2J4H7,WATERLOO,
REXALL,851 FISCHER-HALLMAN RD ,KITCHENER ,Ontario ,N2M5J8,WATERLOO,
BELGAGE PHARMACY,525 BELMONT AVE W ,KITCHENER ,Ontario ,N2M5E2,WATERLOO,
LANGS MEDICAL PHARMACY,1145 CONCESSION ROAD ,CAMBRIDGE ,Ontario ,N3H4L5,WATERLOO,
BISHOP PHARMACY PHARMACHOICE,111-1515 KING STREET EAST ,CAMBRIDGE ,Ontario ,N3H3R6,WATERLOO,
PHARMASAVE,1144 COURTLAND AVE E ,KITCHENER ,Ontario ,N2C2H5,WATERLOO,
DOON MILLS PHARMACY,260 DOON SOUTH DR UNIT 4 ,KITCHENER ,Ontario ,N2P2L8,WATERLOO,
FOOD BASICS PHARMACY #597,655 FAIRWAY RD S ,KITCHENER ,Ontario ,N2C1X4,WATERLOO,
COUNTRY HILLS PHARMACY,5-153 COUNTRY HILL DR ,KITCHENER ,Ontario ,N2E2G7,WATERLOO,
LOBLAW PHARMACY 515,1375 WEBER ST E ,KITCHENER ,Ontario ,N2A2Y7,WATERLOO,
BADEN VILLAGE PHARMACY,6A-18 SNIDERS ROAD ,BADEN ,Ontario ,N3A0A7,WATERLOO,
BRESLAU PHARMACY &WELLNESS CTN,11 WOOLWICH STREET NORTH ,BRESLAU ,Ontario ,N0B1M0,WATERLOO,
FREEPORT RETAIL PHARMACY,3570 KING STREET EAST ,KITCHENER ,Ontario ,N2A2W1,WATERLOO,
PHAMILY PHARMACY,98 WEBER STREET NORTH ,WATERLOO ,Ontario ,N2J3G8,WATERLOO,
SOBEY'S PHARMACY #7273,640 PARKSIDE DRIVE ,WATERLOO ,Ontario ,N2L0C7,WATERLOO,
ROCKWAY PHARMACY,5-815 WEBER ST E ,KITCHENER ,Ontario ,N2N1H5,WATERLOO,
SILVERHEIGHTS PHARMACY,165 FISHER MILLS RD ,CAMBRIDGE ,Ontario ,N3C1E1,WATERLOO,
SHOPPERS DRUG MART #724,104 SILVER CREEK PKWY N ,GUELPH ,Ontario ,N1H7B4,WELLINGTON-DUFFERIN-GUELPH,
DRUGSTORE PHARMACY #539,800 TOWER ST S ,FERGUS ,Ontario ,N1M2R3,WELLINGTON-DUFFERIN-GUELPH,
WALSH'S IDA PHARMACY MT.FOREST,129 MAIN STREET SOUTH ,MOUNT FOREST ,Ontario ,N0G2L0,WELLINGTON-DUFFERIN-GUELPH,
SHOPPERS DRUG MART #1213,7 CLAIR RD W ,GUELPH ,Ontario ,N1L0A6,WELLINGTON-DUFFERIN-GUELPH,
CARAVAGGIO IDA DRUGS,128 MAIN STREET EAST ,SHELBURNE ,Ontario ,L9V3K5,WELLINGTON-DUFFERIN-GUELPH,
SHOPPERS DRUG MART #703,ORANGEVILLE MALL ,ORANGEVILLE ,Ontario ,L9W3T7,WELLINGTON-DUFFERIN-GUELPH,
SHOPPERS DRUG MART 1340,489 BROADWAY ,ORANGEVILLE ,Ontario ,L9W0A4,WELLINGTON-DUFFERIN-GUELPH,
REXALL #1081,265 ERAMOSA RD ,GUELPH ,Ontario ,N1E2M7,WELLINGTON-DUFFERIN-GUELPH,
REXALL,520 RIDDELL RD ,ORANGEVILLE ,Ontario ,L9W5L1,WELLINGTON-DUFFERIN-GUELPH,
UNIVERSITY SQUARE PHARMACY,987 GORDON ST UNIT 8 ,GUELPH ,Ontario ,N1G4W3,WELLINGTON-DUFFERIN-GUELPH,
DRUGSTORE PHARMACY #554,50 FOURTH AVE ,ORANGEVILLE ,Ontario ,L9W4P1,WELLINGTON-DUFFERIN-GUELPH,
WAL-MART PHARMACY,11 WOODLAWN RD W ,GUELPH ,Ontario ,N1H1G8,WELLINGTON-DUFFERIN-GUELPH,
WALSH'S IDA PHARMACY LTD,147 GEORGE ST ,ARTHUR ,Ontario ,N0G1A0,WELLINGTON-DUFFERIN-GUELPH,
DRAYTON PHARMACY,10 WELLINGTON ST N , DRATON , Ontario , N0G1P0,WELLINGTON-DUFFERIN-GUELPH,
KORTRIGHT PHARMACY,570 KORTRIGHT RD W ,GUELPH ,Ontario ,N1G3W8,WELLINGTON-DUFFERIN-GUELPH,
ELORA APOTHECARY,B-115 GEDDES STREET ,ELORA ,Ontario ,N0B1S0,WELLINGTON-DUFFERIN-GUELPH,
SHELBURNE TOWN PHARMACY,103-712 MAIN ST E ,SHELBURNE ,Ontario ,L9V2X4,WELLINGTON-DUFFERIN-GUELPH,
GRAND VALLEY DRUG STORE,23 MAIN STREET SOUTH ,GRAND VALLEY ,Ontario ,L9W5S8,WELLINGTON-DUFFERIN-GUELPH,
LOBLAW PHARMACY #538,297 ERAMOSA RD ,GUELPH ,Ontario ,N1E2M7,WELLINGTON-DUFFERIN-GUELPH,
WESTMINSTER SQUARE REMEDY'S RX,4-33 FARLEY DRIVE ,GUELPH ,Ontario ,N1L0B7,WELLINGTON-DUFFERIN-GUELPH,
ROYAL CITY PHARMACY,84 GORDON ST ,GUELPH ,Ontario ,N1H3R7,WELLINGTON-DUFFERIN-GUELPH,
LOBLAW PHARMACY #500,124 CLAIR ROAD EAST ,GUELPH ,Ontario ,N1L0G6,WELLINGTON-DUFFERIN-GUELPH,
GORDON PHARMASAVE PHARMACY,1515 GORDON STREET ,GUELPH ,Ontario ,N1L0C9,WELLINGTON-DUFFERIN-GUELPH,
COSTCO PHARMACY #151,1 YORK TECK DR ,MARKHAM ,Ontario ,L6G1A6,YORK REGION,
SHOPPERS DRUG MART #659,404 TOWN CENTRE ,NEWMARKET ,Ontario ,L3Y8X2,YORK REGION,
SHOPPERS DRUG MART #961,5710 MAIN ST ,STOUFFVILLE ,Ontario ,L4A8A9,YORK REGION,
SHOPPERS DRUG MART #930,4000 HWY 7 ,WOODBRIDGE ,Ontario ,L4L1A6,YORK REGION,
SHOPPERS DRUG MART #658,298 JOHN ST ,THORNHILL ,Ontario ,L3T5W4,YORK REGION,
SHOPPERS DRUG MART #1268,9651 YONGE STREET ,RICHMOND HILL ,Ontario ,L4C1V7,YORK REGION,
SHOPPERS DRUG MART #847,7060 WARDEN AVE ,MARKHAM ,Ontario ,L3R5Y2,YORK REGION,
COSTCO PHARMACY #793,587 HANLAN RD ,VAUGHAN ,Ontario ,L4L4R8,YORK REGION,
COSTCO PHARAMCY # 1261,55 NEW HUNTINGTON RD ,VAUGHAN ,Ontario ,L4H0S8,YORK REGION,
WAL-MART PHARMACY,5000 HIGHWAY # 7 ,MARKHAM ,Ontario ,L3R4M9,YORK REGION,
SHOPPERS DRUG MART #846,1661 DENISON ST ,MARKHAM ,Ontario ,L3R6E4,YORK REGION,
SHOPPERS DRUG MART #648,411 THE QUEENSWAY S ,KESWICK ,Ontario ,L4P2C7,YORK REGION,
BAYVIEW HILL PHARMACY,420 HWY 7 E UNIT 104 ,RICHMOND HILL ,Ontario ,L4B3K2,YORK REGION,
SHOPPERS DRUG MART #700,5100 RUTHERFORD RD ,WOODBRIDGE ,Ontario ,L4H2J2,YORK REGION,
SHOPPERS DRUG MART #753,5694 HIGHWAY 7 ,WOODBRIDGE ,Ontario ,L4L1T8,YORK REGION,
LANGSTAFF PHARMACY,8401 WESTON RD UNIT 21 ,WOODBRIDGE ,Ontario ,L4L1A6,YORK REGION,
SHOPPERS DRUG MART #657,10 ROYAL ORCHARD BLVD ,THORNHILL ,Ontario ,L3T3C3,YORK REGION,
HERITAGE PHARMACY,9275 HWY 48 ,MARKHAM ,Ontario ,L6E1A3,YORK REGION,
SHOPPERS DRUG MART #896,441 CLARK AVE W ,THORNHILL ,Ontario ,L4J6W8,YORK REGION,
WAL-MART PHARMACY,700 CENTRE ST ,THORNHILL ,Ontario ,L4J0A7,YORK REGION,
PANACEA PHARMACY,4600 HIGHWAY 7 ,WOODBRIDGE ,Ontario ,L4L4Y7,YORK REGION,
SHOPPERS DRUG MART #1282,9200 DUFFERIN STREET ,CONCORD ,Ontario ,L4K0C6,YORK REGION,
SHOPPERS DRUG MART #746,9200 WESTON RD BLDG C ,WOODBRIDGE ,Ontario ,L4H2P8,YORK REGION,
THE DRUGSTORE PHARMACY #4256,8601 WARDEN AVE ,MARKHAM ,Ontario ,L3R0B5,YORK REGION,
SHOPPERS DRUG MART 1425,12277 10TH LINE ,STOUFFVILLE ,Ontario ,L4A7W6,YORK REGION,
SHOPPERS DRUG MART #1266,3737 MAJOR MACKENZIE DR ,VAUGHAN ,Ontario ,L4H0A2,YORK REGION,
SHOPPERS DRUG MART #1179,8865 YONGE ST ,RICHMOND HILL ,Ontario ,L4C6Z1,YORK REGION,
FOOD BASICS PHARMACY #526,1070 MAJOR MACKENZIE DR E ,RICHMOND HILL ,Ontario ,L4S1P3,YORK REGION,
SHOPPERS DRUG MART #640,9255 WOODBINE AVE ,MARKHAM ,Ontario ,L6C1Y9,YORK REGION,
SHOPPERS DRUG MART #1219,7700 MARKHAM ROAD ,MARKHAM ,Ontario ,L3S3K5,YORK REGION,
SHOPPERS DRUG MART #1308,1730 BUR OAK AVE ,MARKHAM ,Ontario ,L6E0H8,YORK REGION,
SHOPPERS DRUG MART #1537,2900 STEELES AVE E ,THORNHILL ,Ontario ,L3T4X1,YORK REGION,
REXALL #117,183-1 PROMENADE CIRCLE ,THORNHILL ,Ontario ,L4J4P8,YORK REGION,
LOBLAW PHARMACY #1032,200 BULLOCK DR ,MARKHAM ,Ontario ,L3P1W2,YORK REGION,
WAL-MART PHARMACY,1070 MAJOR MACKENZIE DR E ,RICHMOND HILL ,Ontario ,L4S1P3,YORK REGION,
DALES PHARMACY,BAYVIEW LANE 8200 BAYVIEW AVE ,THORNHILL ,Ontario ,L3T2X2,YORK REGION,
SHOPPERS DRUG MART #1148,118 TOWER HILL RD ,RICHMOND HILL ,Ontario ,L4E0K6,YORK REGION,
SHOPPERS DRUG MART #913,2943 MAJOR MACKENZIE DR ,MAPLE ,Ontario ,L6A3N9,YORK REGION,
DRUGSTORE PHARMACY #4069,3940 HIGHWAY 7 RR 2 ,VAUGHAN ,Ontario ,L4L1A6,YORK REGION,
FRESHCO PHARMACY #7265,800 STEELES AVE W ,THORNHILL ,Ontario ,L4J1A2,YORK REGION,
WAL-MART PHARMACY,1900 MAJOR MACKENZIE DR ,VAUGHAN ,Ontario ,L6A4R9,YORK REGION,
LOBLAW PHARMACY #1028,301 HIGH TECH RD ,RICHMOND HILL ,Ontario ,L4B4R2,YORK REGION,
NEW CARE PHARMACY,11 - 17730 LESLIE STREET ,NEWMARKET ,Ontario ,L3Y4W4,YORK REGION,
WAL-MART PHARMACY,17940 YONGE ST ,NEWMARKET ,Ontario ,L3Y8S4,YORK REGION,
LOBLAW PHARMACY #520,24018 WOODBINE AVE ,KESWICK ,Ontario ,L4P3E9,YORK REGION,
ALLAN'S COMMUNITY PHARMACY,17-531 ATKINSON AVENUE ,THORNHILL ,Ontario ,L4J8L7,YORK REGION,
WAL-MART PHARMACY,255 SILVER LINDEN DR ,RICHMOND HILL ,Ontario ,L4B4V5,YORK REGION,
WAL-MART PHARMACY,1050 HOOVER PARK DR ,STOUFFVILLE ,Ontario ,L4A0K2,YORK REGION,
PRIMA CARE PHARMACY,9-9600 ISLINGTON AVE ,WOODBRIDGE ,Ontario ,L4H2T1,YORK REGION,
THE DRUGSTORE PHARMACY #4356,9325 YONGE ST ,RICHMOND HILL ,Ontario ,L4C1V4,YORK REGION,
LOBLAW PHARMACY #4039,"8585 HWY #27, RR # 3 ",WOODBRIDGE ,Ontario ,L4L1A7,YORK REGION,
SHOPPERS DRUG MART #1385,2920 MAJOR MACKENZIE DR E ,MARKHAM ,Ontario ,L6C0G6,YORK REGION,
REXALL #6933,90 COPPER CREEK DR ,MARKHAM ,Ontario ,L6B0P2,YORK REGION,
SHOPPERS DRUG MART #612,2015-5000 HIGHWAY 7 EAST ,MARKHAM ,Ontario ,L3R4M9,YORK REGION,
DRUGSTORE PHARMACY #4122,2911 MAJOR MACKENZIE DR ,VAUGHAN ,Ontario ,L6A3N9,YORK REGION,
SHOPPERS DRUG MART #1338,10800 BAYVIEW AVE ,RICHMOND HILL ,Ontario ,L4S0A6,YORK REGION,
WAL-MART PHARMACY,3600 MAJOR MACKENZIE DR ,VAUGHAN ,Ontario ,L6A1S1,YORK REGION,
LOBLAW PHARMACY #1208,10909 YONGE ST ,RICHMOND HILL ,Ontario ,L4C3E3,YORK REGION,
RUTHERFORD GUARDIAN DRUGS,2-5283 RUTHERFORD RD ,WOODBRIDGE ,Ontario ,L4H2T2,YORK REGION,
THE CHEMIST PHARMACY,27 WOOTTEN WAY N ,MARKHAM ,Ontario ,L3P2Y2,YORK REGION,
101 MEDICAL PHARMACY,1520 STEELES AVE. W. ,VAUGHAN ,Ontario ,L4K3B9,YORK REGION,
HILLCROFT PHARMACY,7-5 HILLCROFT DR ,MARKHAM ,Ontario ,L3S1R7,YORK REGION,
ENHANCED CARE PHCY THORNHILL,7335 YONGE ST ,THORNHILL ,Ontario ,L3T2B2,YORK REGION,
BLUE SKIES PHARMACY IDA,C9-9980 KENNEDY ROAD ,MARKHAM ,Ontario ,L6C0M4,YORK REGION,
WAL-MART PHARMACY,500 COPPER CREEK DR ,MARKHAM ,Ontario ,L6B0S1,YORK REGION,
PINE GROVE PHARMACY,101-8077 ISLINGTON AVENUE ,WOODBRIDGE ,Ontario ,L4L7X7,YORK REGION,
REXALL #6998,13291 YONGE ST ,RICHMOND HILL ,Ontario ,L4E4L6,YORK REGION,
WAL-MART PHARMACY,1111 DAVIS DRIVE ,NEWMARKET ,Ontario ,L3Y8X2,YORK REGION,
DRUGSTORE PHARMACY 4276,7075 MARKHAM RD ,MARKHAM ,Ontario ,L3S3J9,YORK REGION,
REXALL,2-178 CITATION DR ,CONCORD ,Ontario ,L4K2Z2,YORK REGION,
BAYVIEW IDA PHARMACY,4A&4B-7355 BAYVIEW AVENUE ,THORNHILL ,Ontario ,L3T5Z2,YORK REGION,
SUMMERIDGE GUARDIAN PHARMACY,8707 DUFFERIN ST UNIT 24 ,VAUGHAN ,Ontario ,L4J0A2,YORK REGION,
FRESHCO PHARMACY #7264,3737 MAJOR MACKENZIE DR ,VAUGHAN ,Ontario ,L4L1A6,YORK REGION,
PHARMAGREEN PHARMACY,10 GREENSBOROUGH VILLAGE CIRCL ,MARKHAM ,Ontario ,L6E1M4,YORK REGION,
IHEALTH CENTRE PHARMACY,19-6175 HWY 7 ,VAUGHAN ,Ontario ,L4H0P6,YORK REGION,
WESTON DOWNS PHARMACY,9-9000 WESTON ROAD ,WOODBRIDGE ,Ontario ,L4L1A6,YORK REGION,
DRUG SMART PHARMACY,700-200 WINDFLOWER GATE ,VAUGHAN ,Ontario ,L4L9L3,YORK REGION,
STOUFFVILLE PHARMASAVE,208-5892 MAIN ST ,STOUFFVILLE ,Ontario ,L4A2S8,YORK REGION,
KLEINBURG PHARMACY,5-10462 ISLINGTON AVE ,KLEINBURG ,Ontario ,L0J1C0,YORK REGION,
BIO HEALTH PHARMACY,2389 MAJOR MACKENZIE DR ,MAPLE ,Ontario ,L6A3Z2,YORK REGION,
PEACE MEDICAL PHARMACY,19-9699 JANE STREET ,VAUGHAN ,Ontario ,L6A0A4,YORK REGION,
REXALL GUARDIAN MARKHAMACK PHY,7-9889 HIGHWAY 48 ,MARKHAM ,Ontario ,L6E0B7,YORK REGION,
DRUGCARE PHARMACY,10-2563 MAJOR MACKENZIE DRIVE ,MAPLE ,Ontario ,L6A2E8,YORK REGION,
NEWMARKET PHARMACY,130 DAVIS DR UNIT 24 ,NEWMARKET ,Ontario ,L3Y2N1,YORK REGION,
SOBEYS PHARMACY # 7244,11700 YONGE ST ,RICHMOND HILL ,Ontario ,L4E3N6,YORK REGION,
SWAN LAKE PHARMACY,3-5 SWAN LAKE BLVD ,MARKHAM ,Ontario ,L6E0K7,YORK REGION,
SOBEYS PHARMACY #7215,9200 BATHURST ST ,VAUGHAN ,Ontario ,L4J8W1,YORK REGION,
LMC PHARMACY-VAUGHAN,1600 STEELES AVE W ,CONCORD ,Ontario ,L4K4M2,YORK REGION,
MEDICAL PHARMACY,30 FULTON WAY UNIT 5 & 6 ,RICHMOND HILL ,Ontario ,L4B1E6,YORK REGION,
SOBEYS PHARMACY,1550 BAYVIEW AVENUE ,AURORA ,Ontario ,L4G7T1,YORK REGION,
VAUGHAN COMPOUNDING PHARMACY,B7-3300 RUTHERFORD RD ,VAUGHAN ,Ontario ,L4K5Z2,YORK REGION,
CENTRO HEALTHCARE PHARMACY,7777 WESTON RD ,VAUGHAN ,Ontario ,L4L0G9,YORK REGION,
ALPHA WOODBRIDGE PHARMACY,5731 HWY 7 ,WOODBRIDGE ,Ontario ,L4L4Y9,YORK REGION,
REXALL,101-5779 MAIN ST ,STOUFFVILLE ,Ontario ,L4A4R2,YORK REGION,
MOUNT JOY PHARMACY,"9418 MARKHAM RD.,UNIT #C2 ",MARKHAM ,Ontario ,L6E0N1,YORK REGION,
VENICE PHARMACY,76-3530 RUTHERFORD ROAD ,VAUGHAN ,Ontario ,L4H3T8,YORK REGION,
MEDBRANDS IDA PHARMACY,1-53 WOODBRIDGE AVE ,WOODBRIDGE ,Ontario ,L4L9K9,YORK REGION,
PEOPLE'S CHOICE REMEDY'S RX,103-2860 DENISON ST E ,MARKHAM ,Ontario ,L3S4T6,YORK REGION,
CITYVIEW PHARMACY (PHARMASAVE),551 CITYVIEW BLVD ,WOODBRIDGE ,Ontario ,L4H0Z4,YORK REGION,
THE PATIENT CARE PHARMACY,8-8290 HIGHWAY #27 ,VAUGHAN ,Ontario ,L4H0S1,YORK REGION,
SCHOMBERG VILLAGE PHARMACY,50 DR. KAY DRIVE ,SCHOMBERG ,Ontario ,L0G1T0,YORK REGION,
WOODSTREAM PHARMACY,3-5451 HWY 7 ,WOODBRIDGE ,Ontario ,L4L0B2,YORK REGION,
TUSCANY GUARDIAN PHARMACY,16-9100 JANE ST ,VAUGHAN ,Ontario ,L4K0A4,YORK REGION,
PHARMACARE MEDICAL GROUP,107 - 13311 YOUGE STREET ,RICHMOND HILL ,Ontario ,L4E3L6,YORK REGION,
SHOPPERS DRUG MART #1375,1 BASS PRO MILLS DR ,VAUGHAN ,Ontario ,L4K5W4,YORK REGION,
2CARE PHARMACY,2-3028 BUR OAK AVE ,MARKHAM ,Ontario ,L6B0R1,YORK REGION,
VAUGHAN METROPOLITAN PHARMACY,112-2904 HIGHWAY 7 WEST ,VAUGHAN ,Ontario ,L4K0G3,YORK REGION,
MARKHAM CLINIC PHARMACY,10C-50 BUROAK AVE ,MARKHAM ,Ontario ,L6C0A2,YORK REGION,
BEVERLY MED PHARMACY,9201 YONGE ST ,RICHMOND HILL ,Ontario ,L4C1H9,YORK REGION,